restriction_type,times_of_operation,maximum_stay,tariff,cashless_identifier,nearest_machine,road_name,postcode,controlled_parking_zone,valid_parking_permits,parking_bay_length_metres,disclaimer,easting,northing,longitude,latitude,unique_identifier,spatial_accuracy,last_uploaded,location,organisation_uri,:@computed_region_hxwp_gyfc,:@computed_region_6i9a_26nj,parking_spaces,epsg_27700_well_known_text_geometry,epsg_4326_well_known_text_geometry
disabled (dedicated),at any time,N/A,N/A,N/A,N/A,Burrard Road,NW6 1DD,CA-P,CA-P,6,"The information provider and/ or licensor are not liable for any errors or omissions contained within this dataset and shall not be liable for any loss, injury or damage caused by its use.",0,0,-0.19451,51.554909,46127195,Defined By Custodian,2019-11-29T23:02:13.000,"{'latitude': '51.554909', 'longitude': '-0.19451', 'human_address': '{""address"": """", ""city"": """", ""state"": """", ""zip"": """"}'}",{'url': 'http://opendatacommunities.org/id/london-borough-council/camden'},5,36,1,,
disabled (blue badge),at any time,N/A,N/A,N/A,N/A,Kingsgate Place,NW6 4JH,CA-Q,N/A,5,"The information provider and/ or licensor are not liable for any errors or omissions contained within this dataset and shall not be liable for any loss, injury or damage caused by its use.",525125,184054,-0.197091,51.541526,46043423,Defined By Custodian,2019-11-29T23:01:59.000,"{'latitude': '51.541526', 'longitude': '-0.197091', 'human_address': '{""address"": """", ""city"": """", ""state"": """", ""zip"": """"}'}",{'url': 'http://opendatacommunities.org/id/london-borough-council/camden'},13,90,1,"LINESTRING (525128.5643615362 184054.70414420974,525127.4347881654 184056.00377219508,525122.759838521 184052.19486248415,525123.9223921363 184050.88523736043)","LINESTRING (-0.19704004424310304 51.54153093441595,-0.1970558621172958 51.541542864528736,-0.1971245925972321 51.541509668675744,-0.19710830294783596 51.541497641422346)"
disabled (blue badge),N/A,N/A,N/A,N/A,N/A,York Way,N1C 4AY,CA-N,N/A,13,"The information provider and/ or licensor are not liable for any errors or omissions contained within this dataset and shall not be liable for any loss, injury or damage caused by its use.",0,0,-0.122718,51.536634,46126633,Defined By Custodian,2019-11-29T23:02:13.000,"{'latitude': '51.536634', 'longitude': '-0.122718', 'human_address': '{""address"": """", ""city"": """", ""state"": """", ""zip"": """"}'}",{'url': 'http://opendatacommunities.org/id/london-borough-council/camden'},16,112,3,,
disabled (blue badge),mon-fri 08:30-18:30,N/A,N/A,N/A,N/A,Portpool Lane,EC1N 7SE,CA-D,N/A,6,"The information provider and/ or licensor are not liable for any errors or omissions contained within this dataset and shall not be liable for any loss, injury or damage caused by its use.",531096,181908,-0.111837,51.520887,46042570,Defined By Custodian,2019-11-29T23:01:57.000,"{'latitude': '51.520887', 'longitude': '-0.111837', 'human_address': '{""address"": """", ""city"": """", ""state"": """", ""zip"": """"}'}",{'url': 'http://opendatacommunities.org/id/london-borough-council/camden'},11,73,1,"LINESTRING (531100.470362124 181907.6887209817,531099.8684726637 181909.5681829913,531093.9237836098 181907.8086866419,531094.5751434368 181905.82925324878)","LINESTRING (-0.1117732175840341 51.52088218890081,-0.11178118896183564 51.52089921873279,-0.11186747712609649 51.52088478478659,-0.11185883026668408 51.52086684507128)"
disabled (dedicated),at any time,N/A,N/A,N/A,N/A,Gloucester Crescent,NW1 7DS,CA-F,N/A,7,"The information provider and/ or licensor are not liable for any errors or omissions contained within this dataset and shall not be liable for any loss, injury or damage caused by its use.",0,0,-0.145513,51.53812,46126941,Defined By Custodian,2019-11-29T23:02:13.000,"{'latitude': '51.53812', 'longitude': '-0.145513', 'human_address': '{""address"": """", ""city"": """", ""state"": """", ""zip"": """"}'}",{'url': 'http://opendatacommunities.org/id/london-borough-council/camden'},3,22,1,,
disabled (blue badge),at any time,N/A,N/A,N/A,N/A,Chenies Street,WC1E 7EA,CA-E,N/A,1021,"The information provider and/ or licensor are not liable for any errors or omissions contained within this dataset and shall not be liable for any loss, injury or damage caused by its use.",0,0,-0.132836,51.520537,46129424,Defined By Custodian,2019-11-29T23:02:14.000,"{'latitude': '51.520537', 'longitude': '-0.132836', 'human_address': '{""address"": """", ""city"": """", ""state"": """", ""zip"": """"}'}",{'url': 'http://opendatacommunities.org/id/london-borough-council/camden'},2,9,1,,
disabled (dedicated),at any time,N/A,N/A,N/A,N/A,Kingsgate Place,NW6 4TB,CA-Q,N/A,6,"The information provider and/ or licensor are not liable for any errors or omissions contained within this dataset and shall not be liable for any loss, injury or damage caused by its use.",0,0,-0.195365,51.540606,46127154,Defined By Custodian,2019-11-29T23:02:13.000,"{'latitude': '51.540606', 'longitude': '-0.195365', 'human_address': '{""address"": """", ""city"": """", ""state"": """", ""zip"": """"}'}",{'url': 'http://opendatacommunities.org/id/london-borough-council/camden'},13,90,1,,
disabled (blue badge),at any time,N/A,N/A,N/A,N/A,Greenwood Place,NW5 1LB,CA-M,N/A,1034,"The information provider and/ or licensor are not liable for any errors or omissions contained within this dataset and shall not be liable for any loss, injury or damage caused by its use.",0,0,-0.143529,51.552836,46128548,Defined By Custodian,2019-11-29T23:02:14.000,"{'latitude': '51.552836', 'longitude': '-0.143529', 'human_address': '{""address"": """", ""city"": """", ""state"": """", ""zip"": """"}'}",{'url': 'http://opendatacommunities.org/id/london-borough-council/camden'},12,87,1,,
disabled (blue badge),at any time,N/A,N/A,N/A,N/A,Bloomsbury Square,WC1B 4JB,CA-C,N/A,24,"The information provider and/ or licensor are not liable for any errors or omissions contained within this dataset and shall not be liable for any loss, injury or damage caused by its use.",0,0,-0.122152,51.519206,46128346,Defined By Custodian,2019-11-29T23:02:14.000,"{'latitude': '51.519206', 'longitude': '-0.122152', 'human_address': '{""address"": """", ""city"": """", ""state"": """", ""zip"": """"}'}",{'url': 'http://opendatacommunities.org/id/london-borough-council/camden'},11,73,4,,
disabled (blue badge),at any time,N/A,N/A,N/A,N/A,Bracknell Gardens,NW3 7EE,CA-S,N/A,6,"The information provider and/ or licensor are not liable for any errors or omissions contained within this dataset and shall not be liable for any loss, injury or damage caused by its use.",525703,185481,-0.188251,51.554222,46034955,Defined By Custodian,2019-11-29T23:01:52.000,"{'latitude': '51.554222', 'longitude': '-0.188251', 'human_address': '{""address"": """", ""city"": """", ""state"": """", ""zip"": """"}'}",{'url': 'http://opendatacommunities.org/id/london-borough-council/camden'},6,37,1,"LINESTRING (525705.1662195195 185478.0267223598,525706.1968521571 185479.54628738883,525701.1756099465 185483.48515989832,525700.1697124921 185481.99558628432)","LINESTRING (-0.1882217173929783 51.55419445978826,-0.18820631708906993 51.55420788673136,-0.18827729896092854 51.554244403635785,-0.18829233196155482 51.554231240710386)"
disabled (dedicated),at any time,N/A,N/A,N/A,N/A,Iverson Road,NW6 2RB,CA-Q,N/A,6,"The information provider and/ or licensor are not liable for any errors or omissions contained within this dataset and shall not be liable for any loss, injury or damage caused by its use.",0,0,-0.193875,51.547993,46127349,Defined By Custodian,2019-11-29T23:02:13.000,"{'latitude': '51.547993', 'longitude': '-0.193875', 'human_address': '{""address"": """", ""city"": """", ""state"": """", ""zip"": """"}'}",{'url': 'http://opendatacommunities.org/id/london-borough-council/camden'},18,132,1,,
disabled (blue badge),mon-fri 08:30-18:30,N/A,N/A,N/A,N/A,Chalton Street,NW1 1HY,CA-G,N/A,27,"The information provider and/ or licensor are not liable for any errors or omissions contained within this dataset and shall not be liable for any loss, injury or damage caused by its use.",529778,182891,-0.130461,51.530025,46049498,Defined By Custodian,2019-11-29T23:02:13.000,"{'latitude': '51.530025', 'longitude': '-0.130461', 'human_address': '{""address"": """", ""city"": """", ""state"": """", ""zip"": """"}'}",{'url': 'http://opendatacommunities.org/id/london-borough-council/camden'},16,115,4,"LINESTRING (529770.4842910889 182907.3025844897,529768.8187887465 182906.18290499464,529784.2288079445 182883.53938663434,529785.7376541259 182884.57908902262)","LINESTRING (-0.13056391709988638 51.530172384960004,-0.13058832632462097 51.53016270490516,-0.1303746362694089 51.52995567307835,-0.13035251369048778 51.529964670313746)"
disabled (dedicated),at any time,N/A,N/A,N/A,N/A,Tonbridge Street,WC1H 9DZ,CA-D,N/A,6,"The information provider and/ or licensor are not liable for any errors or omissions contained within this dataset and shall not be liable for any loss, injury or damage caused by its use.",530227,182692,-0.124065,51.528133,46043074,Defined By Custodian,2019-11-29T23:01:58.000,"{'latitude': '51.528133', 'longitude': '-0.124065', 'human_address': '{""address"": """", ""city"": """", ""state"": """", ""zip"": """"}'}",{'url': 'http://opendatacommunities.org/id/london-borough-council/camden'},14,100,1,"LINESTRING (530227.4750476785 182696.6128937863,530225.7353397862 182695.70315419658,530228.4562099495 182690.2547137964,530230.2288980862 182691.14445910946)","LINESTRING (-0.12405739508486814 51.52817385632072,-0.12408279610911643 51.52816608140735,-0.12404560865698397 51.52811649036987,-0.12401973988118833 51.52812407799231)"
disabled (blue badge),at any time,N/A,N/A,N/A,N/A,Ariel Road,NW6 2DY,CA-Q,N/A,6,"The information provider and/ or licensor are not liable for any errors or omissions contained within this dataset and shall not be liable for any loss, injury or damage caused by its use.",0,0,-0.197976,51.547507,46126861,Defined By Custodian,2019-11-29T23:02:13.000,"{'latitude': '51.547507', 'longitude': '-0.197976', 'human_address': '{""address"": """", ""city"": """", ""state"": """", ""zip"": """"}'}",{'url': 'http://opendatacommunities.org/id/london-borough-council/camden'},18,133,1,,
disabled (blue badge),at any time,N/A,N/A,N/A,N/A,Patshull Road,NW5 2LA,CA-M,N/A,6,"The information provider and/ or licensor are not liable for any errors or omissions contained within this dataset and shall not be liable for any loss, injury or damage caused by its use.",529214,184771,-0.137898,51.547049,46048376,Defined By Custodian,2019-11-29T23:02:11.000,"{'latitude': '51.547049', 'longitude': '-0.137898', 'human_address': '{""address"": """", ""city"": """", ""state"": """", ""zip"": """"}'}",{'url': 'http://opendatacommunities.org/id/london-borough-council/camden'},4,29,1,"LINESTRING (529217.7353948712 184769.60950467899,529217.883805971 184771.5989352104,529211.6505397785 184772.2487492031,529211.4773934954 184770.29930722507)","LINESTRING (-0.1378447833263756 51.54703534916399,-0.1378419139095244 51.5470531939769,-0.13793151904003964 51.54706045941093,-0.13793473026607111 51.54704297962487)"
disabled (blue badge),at any time,N/A,N/A,N/A,N/A,Greenwood Place,NW5 1LB,CA-M,N/A,1000,"The information provider and/ or licensor are not liable for any errors or omissions contained within this dataset and shall not be liable for any loss, injury or damage caused by its use.",0,0,-0.143529,51.552836,46128547,Defined By Custodian,2019-11-29T23:02:14.000,"{'latitude': '51.552836', 'longitude': '-0.143529', 'human_address': '{""address"": """", ""city"": """", ""state"": """", ""zip"": """"}'}",{'url': 'http://opendatacommunities.org/id/london-borough-council/camden'},12,87,2,,
disabled (dedicated),at any time,N/A,N/A,N/A,N/A,Stephenson Way,NW1 2HX,CA-G,N/A,6,"The information provider and/ or licensor are not liable for any errors or omissions contained within this dataset and shall not be liable for any loss, injury or damage caused by its use.",0,0,-0.135986,51.526342,46126852,Defined By Custodian,2019-11-29T23:02:13.000,"{'latitude': '51.526342', 'longitude': '-0.135986', 'human_address': '{""address"": """", ""city"": """", ""state"": """", ""zip"": """"}'}",{'url': 'http://opendatacommunities.org/id/london-borough-council/camden'},15,104,1,,
disabled (blue badge),at any time,N/A,N/A,N/A,N/A,Polygon Road,NW1 1SR,CA-G,N/A,5,"The information provider and/ or licensor are not liable for any errors or omissions contained within this dataset and shall not be liable for any loss, injury or damage caused by its use.",529616,183071,-0.132729,51.531679,46049343,Defined By Custodian,2019-11-29T23:02:13.000,"{'latitude': '51.531679', 'longitude': '-0.132729', 'human_address': '{""address"": """", ""city"": """", ""state"": """", ""zip"": """"}'}",{'url': 'http://opendatacommunities.org/id/london-borough-council/camden'},16,114,1,"LINESTRING (529617.9259255353 183074.48472909862,529618.9977834783 183072.82520413268,529614.0177665733 183069.54614275423,529612.929418508 183071.19567058183)","LINESTRING (-0.13270050600659672 51.53170982967885,-0.13268567247068988 51.53169466997504,-0.13275863424511591 51.531666343440754,-0.13277370907511915 51.53168141707368)"
disabled (green permit),at any time,N/A,N/A,N/A,N/A,Store Street,WC1E 7DU,CA-E,N/A,1067,"The information provider and/ or licensor are not liable for any errors or omissions contained within this dataset and shall not be liable for any loss, injury or damage caused by its use.",0,0,-0.132233,51.519772,46129447,Defined By Custodian,2019-11-29T23:02:14.000,"{'latitude': '51.519772', 'longitude': '-0.132233', 'human_address': '{""address"": """", ""city"": """", ""state"": """", ""zip"": """"}'}",{'url': 'http://opendatacommunities.org/id/london-borough-council/camden'},2,9,1,,
disabled (blue badge),at any time,N/A,N/A,N/A,N/A,Patshull Road,NW5 2LB,CA-M,N/A,6,"The information provider and/ or licensor are not liable for any errors or omissions contained within this dataset and shall not be liable for any loss, injury or damage caused by its use.",529018,184790,-0.140716,51.547265,46048405,Defined By Custodian,2019-11-29T23:02:11.000,"{'latitude': '51.547265', 'longitude': '-0.140716', 'human_address': '{""address"": """", ""city"": """", ""state"": """", ""zip"": """"}'}",{'url': 'http://opendatacommunities.org/id/london-borough-council/camden'},4,25,1,"LINESTRING (529024.5536132724 184787.9842449643,529024.5865935168 184790.16362112435,529018.1801810412 184790.38355816802,529018.2131612856 184788.33414480652,529018.3450822632 184788.2741619764)","LINESTRING (-0.1406224910465547 51.54724463223906,-0.14062121687204326 51.547264210505055,-0.14071347615184954 51.547267650106306,-0.14071375192138294 51.547249224736404,-0.1407118724415628 51.54724865555124)"
disabled (blue badge),at any time,N/A,N/A,N/A,N/A,Willes Road,NW5 3DS,CA-L,N/A,12,"The information provider and/ or licensor are not liable for any errors or omissions contained within this dataset and shall not be liable for any loss, injury or damage caused by its use.",528791,184808,-0.143981,51.547478,46045389,Defined By Custodian,2019-11-29T23:02:04.000,"{'latitude': '51.547478', 'longitude': '-0.143981', 'human_address': '{""address"": """", ""city"": """", ""state"": """", ""zip"": """"}'}",{'url': 'http://opendatacommunities.org/id/london-borough-council/camden'},12,86,2,"LINESTRING (528793.724882686 184802.11020145132,528795.2667091119 184803.25987236144,528787.8131738765 184813.9868018098,528786.2713474506 184812.91710800648)","LINESTRING (-0.14394441452469192 51.547424249921086,-0.14392177039693227 51.54743423040013,-0.1440252792645786 51.54753233135839,-0.1440478941599664 51.547523069605575)"
disabled (blue badge),at any time,N/A,N/A,N/A,N/A,Ossulston Street,NW1 1DF,CA-G,N/A,13,"The information provider and/ or licensor are not liable for any errors or omissions contained within this dataset and shall not be liable for any loss, injury or damage caused by its use.",0,0,-0.12952,51.531187,46126962,Defined By Custodian,2019-11-29T23:02:13.000,"{'latitude': '51.531187', 'longitude': '-0.12952', 'human_address': '{""address"": """", ""city"": """", ""state"": """", ""zip"": """"}'}",{'url': 'http://opendatacommunities.org/id/london-borough-council/camden'},16,115,,,
disabled (blue badge),at any time,N/A,N/A,N/A,N/A,Gloucester Avenue,NW1 8HX,CA-J,N/A,5,"The information provider and/ or licensor are not liable for any errors or omissions contained within this dataset and shall not be liable for any loss, injury or damage caused by its use.",528117,184133,-0.153942,51.541565,46047831,Defined By Custodian,2019-11-29T23:02:10.000,"{'latitude': '51.541565', 'longitude': '-0.153942', 'human_address': '{""address"": """", ""city"": """", ""state"": """", ""zip"": """"}'}",{'url': 'http://opendatacommunities.org/id/london-borough-council/camden'},3,18,1,"LINESTRING (528115.5850972427 184136.57071014898,528114.7276108882 184135.41104210052,528119.9467345652 184131.9920207852,528120.7877307975 184133.19167738705)","LINESTRING (-0.15396116338156848 51.54159727417789,-0.1539739434046378 51.541587046701345,-0.15389996952041562 51.541555136732995,-0.15388741259513988 51.541565727316126)"
disabled (dedicated),at any time,N/A,N/A,N/A,N/A,Ariel Road,NW6 2DY,CA-Q,N/A,6,"The information provider and/ or licensor are not liable for any errors or omissions contained within this dataset and shall not be liable for any loss, injury or damage caused by its use.",0,0,-0.197976,51.547507,46126863,Defined By Custodian,2019-11-29T23:02:13.000,"{'latitude': '51.547507', 'longitude': '-0.197976', 'human_address': '{""address"": """", ""city"": """", ""state"": """", ""zip"": """"}'}",{'url': 'http://opendatacommunities.org/id/london-borough-council/camden'},18,133,1,,
disabled (blue badge),at any time,N/A,N/A,N/A,N/A,Shirlock Road,NW3 2HS,CA-B,N/A,6,"The information provider and/ or licensor are not liable for any errors or omissions contained within this dataset and shall not be liable for any loss, injury or damage caused by its use.",527885,185536,-0.156776,51.554227,46046125,Defined By Custodian,2019-11-29T23:02:05.000,"{'latitude': '51.554227', 'longitude': '-0.156776', 'human_address': '{""address"": """", ""city"": """", ""state"": """", ""zip"": """"}'}",{'url': 'http://opendatacommunities.org/id/london-borough-council/camden'},7,47,1,"LINESTRING (527885.9766356993 185540.55882273227,527884.0720265849 185539.87901732454,527886.5043196097 185533.71078296326,527888.235782441 185534.40058550934)","LINESTRING (-0.15676026852309638 51.55426681740393,-0.15678797244007978 51.554261139275184,-0.15675514950629652 51.554205155640815,-0.15672993806908167 51.55421096280365)"
disabled (blue badge),at any time,N/A,N/A,N/A,N/A,Belsize Grove,NW3 4TX,CA-B,N/A,6,"The information provider and/ or licensor are not liable for any errors or omissions contained within this dataset and shall not be liable for any loss, injury or damage caused by its use.",527428,185005,-0.163556,51.549558,46047143,Defined By Custodian,2019-11-29T23:02:08.000,"{'latitude': '51.549558', 'longitude': '-0.163556', 'human_address': '{""address"": """", ""city"": """", ""state"": """", ""zip"": """"}'}",{'url': 'http://opendatacommunities.org/id/london-borough-council/camden'},1,8,1,"LINESTRING (527426.6607718793 185006.94156908224,527428.6313414824 185006.15179515266,527428.1366378163 185005.06210707262,527425.9352065023 185000.12352072826,527424.0718226935 185000.87330610445)","LINESTRING (-0.16357495950716203 51.54957505691122,-0.16354684047031098 51.54956751475501,-0.1635543659036568 51.54955783334719,-0.16358788643329727 51.54951394697251,-0.1636144748830432 51.5495211055668)"
disabled (dedicated),at any time,N/A,N/A,N/A,N/A,Maygrove Road,NW6 2EP,CA-Q,N/A,6,"The information provider and/ or licensor are not liable for any errors or omissions contained within this dataset and shall not be liable for any loss, injury or damage caused by its use.",0,0,-0.196743,51.547779,46126866,Defined By Custodian,2019-11-29T23:02:13.000,"{'latitude': '51.547779', 'longitude': '-0.196743', 'human_address': '{""address"": """", ""city"": """", ""state"": """", ""zip"": """"}'}",{'url': 'http://opendatacommunities.org/id/london-borough-council/camden'},18,133,1,,
disabled (blue badge),at any time,N/A,N/A,N/A,N/A,Loveridge Road,NW6 2DX,CA-Q,N/A,5,"The information provider and/ or licensor are not liable for any errors or omissions contained within this dataset and shall not be liable for any loss, injury or damage caused by its use.",524982,184701,-0.198922,51.547372,46044296,Defined By Custodian,2019-11-29T23:02:01.000,"{'latitude': '51.547372', 'longitude': '-0.198922', 'human_address': '{""address"": """", ""city"": """", ""state"": """", ""zip"": """"}'}",{'url': 'http://opendatacommunities.org/id/london-borough-council/camden'},18,133,1,"LINESTRING (524986.4772235809 184700.7792071467,524985.9495396705 184702.40874069757,524979.8894197611 184700.54927296468,524980.4253487327 184698.86975372207)","LINESTRING (-0.1988584658533681 51.54736876208939,-0.19886549333027992 51.54738352371648,-0.19895350517761548 51.54736815332159,-0.1989463765778384 51.547352940646086)"
disabled (blue badge),at any time,N/A,N/A,N/A,N/A,John Street,WC1X 8PF,CA-D,N/A,1702,"The information provider and/ or licensor are not liable for any errors or omissions contained within this dataset and shall not be liable for any loss, injury or damage caused by its use.",0,0,-0.114539,51.521359,46128099,Defined By Custodian,2019-11-29T23:02:14.000,"{'latitude': '51.521359', 'longitude': '-0.114539', 'human_address': '{""address"": """", ""city"": """", ""state"": """", ""zip"": """"}'}",{'url': 'http://opendatacommunities.org/id/london-borough-council/camden'},11,79,2,,
disabled (blue badge),at any time,N/A,N/A,N/A,N/A,Lyncroft Gardens,NW6 1LB,CA-P,N/A,972,"The information provider and/ or licensor are not liable for any errors or omissions contained within this dataset and shall not be liable for any loss, injury or damage caused by its use.",0,0,-0.19267,51.553667,46129565,Defined By Custodian,2019-11-29T23:02:14.000,"{'latitude': '51.553667', 'longitude': '-0.19267', 'human_address': '{""address"": """", ""city"": """", ""state"": """", ""zip"": """"}'}",{'url': 'http://opendatacommunities.org/id/london-borough-council/camden'},5,33,1,,
disabled (blue badge),at any time,N/A,N/A,N/A,N/A,Lamble Street,NW5 4AS,CA-L,N/A,5,"The information provider and/ or licensor are not liable for any errors or omissions contained within this dataset and shall not be liable for any loss, injury or damage caused by its use.",528143,185450,-0.153087,51.553395,46046079,Defined By Custodian,2019-11-29T23:02:05.000,"{'latitude': '51.553395', 'longitude': '-0.153087', 'human_address': '{""address"": """", ""city"": """", ""state"": """", ""zip"": """"}'}",{'url': 'http://opendatacommunities.org/id/london-borough-council/camden'},7,48,1,"LINESTRING (528146.6277522884 185450.27466630322,528145.7537758116 185451.63427711866,528140.6913082956 185448.5351642305,528141.6147551389 185447.11557058495)","LINESTRING (-0.15303558749174465 51.553396379159466,-0.15304769151654937 51.55340879602671,-0.1531217989440454 51.55338209317048,-0.15310900359119523 51.55336912603282)"
disabled (blue badge),at any time,N/A,N/A,N/A,N/A,Bartholomew Road,NW1 9JJ,CA-M,N/A,6,"The information provider and/ or licensor are not liable for any errors or omissions contained within this dataset and shall not be liable for any loss, injury or damage caused by its use.",0,0,-0.139919,51.545504,46126822,Defined By Custodian,2019-11-29T23:02:13.000,"{'latitude': '51.545504', 'longitude': '-0.139919', 'human_address': '{""address"": """", ""city"": """", ""state"": """", ""zip"": """"}'}",{'url': 'http://opendatacommunities.org/id/london-borough-council/camden'},4,25,1,,
disabled (dedicated),at any time,N/A,N/A,N/A,N/A,Ossulston Street,NW1 1DF,CA-G,N/A,6,"The information provider and/ or licensor are not liable for any errors or omissions contained within this dataset and shall not be liable for any loss, injury or damage caused by its use.",0,0,-0.12952,51.531187,46127152,Defined By Custodian,2019-11-29T23:02:13.000,"{'latitude': '51.531187', 'longitude': '-0.12952', 'human_address': '{""address"": """", ""city"": """", ""state"": """", ""zip"": """"}'}",{'url': 'http://opendatacommunities.org/id/london-borough-council/camden'},16,115,,,
disabled (blue badge),at any time,N/A,N/A,N/A,N/A,Berkley Road,NW1 8YP,CA-J,N/A,5,"The information provider and/ or licensor are not liable for any errors or omissions contained within this dataset and shall not be liable for any loss, injury or damage caused by its use.",527987,184092,-0.15583,51.541226,46047829,Defined By Custodian,2019-11-29T23:02:10.000,"{'latitude': '51.541226', 'longitude': '-0.15583', 'human_address': '{""address"": """", ""city"": """", ""state"": """", ""zip"": """"}'}",{'url': 'http://opendatacommunities.org/id/london-borough-council/camden'},3,18,1,"LINESTRING (527986.6488317437 184096.10229411258,527988.6523815913 184095.60243719514,527986.9374088823 184090.0340311348,527985.0245547068 184090.61386515902)","LINESTRING (-0.15583410242206389 51.5412628048099,-0.15580540915562927 51.54125785880289,-0.1558321491684843 51.54120820415026,-0.15585950624220304 51.54121384836031)"
disabled (blue badge),at any time,N/A,N/A,N/A,N/A,Redhill Street,NW1 4AX,CA-G,N/A,954,"The information provider and/ or licensor are not liable for any errors or omissions contained within this dataset and shall not be liable for any loss, injury or damage caused by its use.",0,0,-0.143883,51.531746,46128825,Defined By Custodian,2019-11-29T23:02:14.000,"{'latitude': '51.531746', 'longitude': '-0.143883', 'human_address': '{""address"": """", ""city"": """", ""state"": """", ""zip"": """"}'}",{'url': 'http://opendatacommunities.org/id/london-borough-council/camden'},15,108,1,,
disabled (blue badge),at any time,N/A,N/A,N/A,N/A,Roderick Road,NW3 2NN,CA-B,N/A,5,"The information provider and/ or licensor are not liable for any errors or omissions contained within this dataset and shall not be liable for any loss, injury or damage caused by its use.",527819,185499,-0.15774,51.553909,46046340,Defined By Custodian,2019-11-29T23:02:06.000,"{'latitude': '51.553909', 'longitude': '-0.15774', 'human_address': '{""address"": """", ""city"": """", ""state"": """", ""zip"": """"}'}",{'url': 'http://opendatacommunities.org/id/london-borough-council/camden'},7,47,1,"LINESTRING (527820.3541943956 185502.9995739554,527818.4330951591 185502.31976854766,527820.2552536625 185496.86133100916,527822.2835386933 185497.631110662)","LINESTRING (-0.15771992397807977 51.55394413041608,-0.15774786529835666 51.55393845579296,-0.15772357928762834 51.55388898932368,-0.15769406013960707 51.55389544827269)"
disabled (blue badge),at any time,N/A,N/A,N/A,N/A,Goldhurst Terrace,NW6 3HU,CA-R,CA-R;CA-K,6,"The information provider and/ or licensor are not liable for any errors or omissions contained within this dataset and shall not be liable for any loss, injury or damage caused by its use.",526271,184394,-0.180453,51.544327,46046506,Defined By Custodian,2019-11-29T23:02:06.000,"{'latitude': '51.544327', 'longitude': '-0.180453', 'human_address': '{""address"": """", ""city"": """", ""state"": """", ""zip"": """"}'}",{'url': 'http://opendatacommunities.org/id/london-borough-council/camden'},17,119,1,"LINESTRING (526270.5795295885 184398.00587511147,526272.6407948637 184397.5260124707,526271.18966411 184391.8176464735,526269.235584629 184392.347494806)","LINESTRING (-0.18045795312553756 51.54436212957934,-0.1804284160064088 51.54435735632561,-0.18045137867862732 51.54430637925601,-0.18047935296196888 51.54431157777194)"
disabled (blue badge),at any time,N/A,N/A,N/A,N/A,Frognal Gardens,NW3 6UY,CA-H,N/A,5,"The information provider and/ or licensor are not liable for any errors or omissions contained within this dataset and shall not be liable for any loss, injury or damage caused by its use.",526171,185667,-0.181438,51.555789,46034973,Defined By Custodian,2019-11-29T23:01:52.000,"{'latitude': '51.555789', 'longitude': '-0.181438', 'human_address': '{""address"": """", ""city"": """", ""state"": """", ""zip"": """"}'}",{'url': 'http://opendatacommunities.org/id/london-borough-council/camden'},6,38,1,"LINESTRING (526173.2465832899 185670.2816899478,526171.3089939313 185670.38166133128,526171.0286618538 185664.40337259864,526173.0239666402 185664.30340121515)","LINESTRING (-0.18140486208506093 51.55581785085883,-0.18143276002194864 51.55581918225152,-0.18143894383187034 51.55576551810471,-0.18141021386018324 51.55576417381793)"
disabled (blue badge),at any time,N/A,N/A,N/A,N/A,Burrard Road,NW6 1DD,CA-P,N/A,6,"The information provider and/ or licensor are not liable for any errors or omissions contained within this dataset and shall not be liable for any loss, injury or damage caused by its use.",0,0,-0.19451,51.554909,46127196,Defined By Custodian,2019-11-29T23:02:13.000,"{'latitude': '51.554909', 'longitude': '-0.19451', 'human_address': '{""address"": """", ""city"": """", ""state"": """", ""zip"": """"}'}",{'url': 'http://opendatacommunities.org/id/london-borough-council/camden'},5,36,1,,
disabled (blue badge),at any time,N/A,N/A,N/A,N/A,Fellows Road,NW3 3NG,CA-B,N/A,10,"The information provider and/ or licensor are not liable for any errors or omissions contained within this dataset and shall not be liable for any loss, injury or damage caused by its use.",526854,184300,-0.172084,51.543351,46047436,Defined By Custodian,2019-11-29T23:02:09.000,"{'latitude': '51.543351', 'longitude': '-0.172084', 'human_address': '{""address"": """", ""city"": """", ""state"": """", ""zip"": """"}'}",{'url': 'http://opendatacommunities.org/id/london-borough-council/camden'},1,6,2,"LINESTRING (526860.3075248447 184299.4440881295,526859.7138804453 184301.61346715124,526849.4322892523 184299.16416825575,526850.058913896 184297.14474630926)","LINESTRING (-0.17199368559811518 51.543344239990184,-0.17200146003528494 51.54336386952897,-0.17215052818563722 51.54334416615642,-0.17214222433029489 51.54332587688877)"
disabled (blue badge),at any time,N/A,N/A,N/A,N/A,Handel Street,WC1N 1BS,CA-D,N/A,5,"The information provider and/ or licensor are not liable for any errors or omissions contained within this dataset and shall not be liable for any loss, injury or damage caused by its use.",530270,182387,-0.123559,51.525382,46035886,Defined By Custodian,2019-11-29T23:01:55.000,"{'latitude': '51.525382', 'longitude': '-0.123559', 'human_address': '{""address"": """", ""city"": """", ""state"": """", ""zip"": """"}'}",{'url': 'http://opendatacommunities.org/id/london-borough-council/camden'},2,12,1,"LINESTRING (530268.7333334284 182384.36227459632,530268.0325032348 182386.25173374426,530273.5402040504 182388.451104181,530274.2080539995 182386.81157349178)","LINESTRING (-0.12357838535188889 51.52535820519022,-0.1235877835799769 51.52537534692094,-0.12350762335359462 51.52539384315791,-0.12349860790591266 51.5253789550846)"
loading / disabled (blue badge),mon-sat 08:30-18:30,loading 40 minutes,N/A,N/A,N/A,Betterton Street,WC2H 9BH,CA-C,N/A,8,"The information provider and/ or licensor are not liable for any errors or omissions contained within this dataset and shall not be liable for any loss, injury or damage caused by its use.",530314,181262,-0.123341,51.515262,46042439,Defined By Custodian,2019-11-29T23:01:57.000,"{'latitude': '51.515262', 'longitude': '-0.123341', 'human_address': '{""address"": """", ""city"": """", ""state"": """", ""zip"": """"}'}",{'url': 'http://opendatacommunities.org/id/london-borough-council/camden'},11,77,1,"LINESTRING (530310.2966864391 181257.55481987505,530319.349763528 181266.4522730056)","LINESTRING (-0.12339608762835111 51.515222199542436,-0.1232624041631887 51.515300073271824)"
disabled (blue badge),at any time,N/A,N/A,N/A,N/A,Belsize Terrace,NW3 4AX,CA-B,N/A,7,"The information provider and/ or licensor are not liable for any errors or omissions contained within this dataset and shall not be liable for any loss, injury or damage caused by its use.",526888,184937,-0.171364,51.549068,46047394,Defined By Custodian,2019-11-29T23:02:09.000,"{'latitude': '51.549068', 'longitude': '-0.171364', 'human_address': '{""address"": """", ""city"": """", ""state"": """", ""zip"": """"}'}",{'url': 'http://opendatacommunities.org/id/london-borough-council/camden'},1,41,1,"LINESTRING (526886.2547321299 184933.30264800412,526889.618717059 184936.02186963503,526887.9037443501 184938.24123434848,526884.0615458769 184935.47202702583)","LINESTRING (-0.17139126253914977 51.549034905570856,-0.1713417922016732 51.54905858756215,-0.17136571261926112 51.54907891824329,-0.17142209418869706 51.54905489444013)"
disabled (dedicated),at any time,N/A,N/A,N/A,N/A,Lancaster Grove,NW3 4EU,CA-B,CA-B,1221,"The information provider and/ or licensor are not liable for any errors or omissions contained within this dataset and shall not be liable for any loss, injury or damage caused by its use.",0,0,-0.171173,51.546562,46127419,Defined By Custodian,2019-11-29T23:02:13.000,"{'latitude': '51.546562', 'longitude': '-0.171173', 'human_address': '{""address"": """", ""city"": """", ""state"": """", ""zip"": """"}'}",{'url': 'http://opendatacommunities.org/id/london-borough-council/camden'},1,1,1,,
disabled (blue badge),at any time,N/A,N/A,N/A,N/A,Fairfax Road,NW6 4EW,CA-K,N/A,6,"The information provider and/ or licensor are not liable for any errors or omissions contained within this dataset and shall not be liable for any loss, injury or damage caused by its use.",526383,184320,-0.178865,51.543636,46046689,Defined By Custodian,2019-11-29T23:02:07.000,"{'latitude': '51.543636', 'longitude': '-0.178865', 'human_address': '{""address"": """", ""city"": """", ""state"": """", ""zip"": """"}'}",{'url': 'http://opendatacommunities.org/id/london-borough-council/camden'},17,119,1,"LINESTRING (526382.7700759912 184324.14701698968,526384.4603135169 184323.58717724215,526382.267127264 184316.91908596343,526380.6346051659 184317.3889514658)","LINESTRING (-0.1788674531865808 51.54367327045037,-0.1788432929633475 51.543667861041804,-0.17887729665034838 51.54360842518639,-0.17890065729916946 51.54361301307431)"
disabled (dedicated),at any time,N/A,N/A,N/A,N/A,Osnaburgh Street,NW1 3PA,CA-G,N/A,6,"The information provider and/ or licensor are not liable for any errors or omissions contained within this dataset and shall not be liable for any loss, injury or damage caused by its use.",0,0,-0.142626,51.525782,46127246,Defined By Custodian,2019-11-29T23:02:13.000,"{'latitude': '51.525782', 'longitude': '-0.142626', 'human_address': '{""address"": """", ""city"": """", ""state"": """", ""zip"": """"}'}",{'url': 'http://opendatacommunities.org/id/london-borough-council/camden'},15,103,1,,
disabled (blue badge),at any time,N/A,N/A,N/A,N/A,Maple Street,W1T 5HA,CA-E,N/A,968,"The information provider and/ or licensor are not liable for any errors or omissions contained within this dataset and shall not be liable for any loss, injury or damage caused by its use.",0,0,-0.137515,51.522796,46129397,Defined By Custodian,2019-11-29T23:02:14.000,"{'latitude': '51.522796', 'longitude': '-0.137515', 'human_address': '{""address"": """", ""city"": """", ""state"": """", ""zip"": """"}'}",{'url': 'http://opendatacommunities.org/id/london-borough-council/camden'},2,13,,,
disabled (dedicated),at any time,N/A,N/A,N/A,N/A,Newton Street,WC2B 5EG,CA-C,N/A,1031,"The information provider and/ or licensor are not liable for any errors or omissions contained within this dataset and shall not be liable for any loss, injury or damage caused by its use.",0,0,-0.121763,51.516754,46128405,Defined By Custodian,2019-11-29T23:02:14.000,"{'latitude': '51.516754', 'longitude': '-0.121763', 'human_address': '{""address"": """", ""city"": """", ""state"": """", ""zip"": """"}'}",{'url': 'http://opendatacommunities.org/id/london-borough-council/camden'},11,77,1,,
disabled (blue badge),at any time,N/A,N/A,N/A,N/A,Rochester Road,NW1 9JH,CA-G,N/A,6,"The information provider and/ or licensor are not liable for any errors or omissions contained within this dataset and shall not be liable for any loss, injury or damage caused by its use.",0,0,-0.137824,51.544905,46126935,Defined By Custodian,2019-11-29T23:02:13.000,"{'latitude': '51.544905', 'longitude': '-0.137824', 'human_address': '{""address"": """", ""city"": """", ""state"": """", ""zip"": """"}'}",{'url': 'http://opendatacommunities.org/id/london-borough-council/camden'},4,25,1,,
disabled (dedicated),at any time,N/A,N/A,N/A,N/A,Sumatra Road,NW6 1PD,CA-P,N/A,962,"The information provider and/ or licensor are not liable for any errors or omissions contained within this dataset and shall not be liable for any loss, injury or damage caused by its use.",0,0,-0.191898,51.549105,46129734,Defined By Custodian,2019-11-29T23:02:14.000,"{'latitude': '51.549105', 'longitude': '-0.191898', 'human_address': '{""address"": """", ""city"": """", ""state"": """", ""zip"": """"}'}",{'url': 'http://opendatacommunities.org/id/london-borough-council/camden'},18,132,1,,
disabled (dedicated),mon-fri 08:30-18:00,N/A,N/A,N/A,N/A,Rosemont Road,NW3 6ND,CA-R,N/A,7,"The information provider and/ or licensor are not liable for any errors or omissions contained within this dataset and shall not be liable for any loss, injury or damage caused by its use.",0,0,-0.181912,51.549238,46126938,Defined By Custodian,2019-11-29T23:02:13.000,"{'latitude': '51.549238', 'longitude': '-0.181912', 'human_address': '{""address"": """", ""city"": """", ""state"": """", ""zip"": """"}'}",{'url': 'http://opendatacommunities.org/id/london-borough-council/camden'},18,131,1,,
disabled (blue badge),at any time,N/A,N/A,N/A,N/A,Canfield Gardens,NW6 3JN,CA-R,CA-R;CA-K,6,"The information provider and/ or licensor are not liable for any errors or omissions contained within this dataset and shall not be liable for any loss, injury or damage caused by its use.",526154,184536,-0.182088,51.545629,46046714,Defined By Custodian,2019-11-29T23:02:07.000,"{'latitude': '51.545629', 'longitude': '-0.182088', 'human_address': '{""address"": """", ""city"": """", ""state"": """", ""zip"": """"}'}",{'url': 'http://opendatacommunities.org/id/london-borough-council/camden'},17,119,1,"LINESTRING (526157.8035838476 184537.73587781427,526156.4513938271 184538.98552010788,526151.8671398548 184534.29686222223,526153.112144081 184533.05721706696)","LINESTRING (-0.18203333207002145 51.545643086322556,-0.18205237404651037 51.54565461889463,-0.18212012948225634 51.545613505327815,-0.18210262884531178 51.54560208654661)"
disabled (blue badge),at any time,N/A,N/A,N/A,N/A,Lady Margaret Road,NW5 2NP,CA-M,N/A,5,"The information provider and/ or licensor are not liable for any errors or omissions contained within this dataset and shall not be liable for any loss, injury or damage caused by its use.",529285,185610,-0.136566,51.554573,46045221,Defined By Custodian,2019-11-29T23:02:03.000,"{'latitude': '51.554573', 'longitude': '-0.136566', 'human_address': '{""address"": """", ""city"": """", ""state"": """", ""zip"": """"}'}",{'url': 'http://opendatacommunities.org/id/london-borough-council/camden'},12,80,1,"LINESTRING (529288.8820271125 185611.6684678081,529287.4061611755 185612.66818164298,529283.9762157574 185607.6596153302,529285.4355915723 185606.64990435695)","LINESTRING (-0.1365099938705407 51.5545865198123,-0.13653090264486478 51.55459584184364,-0.13658218862995794 51.55455161581447,-0.13656152125864346 51.554542207723834)"
disabled (blue badge),at any time,N/A,N/A,N/A,N/A,Fordwych Road,NW2 3NX,CA-Q,N/A,7,"The information provider and/ or licensor are not liable for any errors or omissions contained within this dataset and shall not be liable for any loss, injury or damage caused by its use.",524143,185540,-0.21072,51.555098,46043809,Defined By Custodian,2019-11-29T23:02:00.000,"{'latitude': '51.555098', 'longitude': '-0.21072', 'human_address': '{""address"": """", ""city"": """", ""state"": """", ""zip"": """"}'}",{'url': 'http://opendatacommunities.org/id/london-borough-council/camden'},5,30,1,"LINESTRING (524143.1146587327 185544.8575922223,524141.4656465125 185543.50797854518,524145.50572645204 185537.83960110135,524147.2619244666 185539.22920333187)","LINESTRING (-0.21071735763172775 51.555140710539895,-0.2107416065416642 51.555128943694115,-0.21068535938679755 51.55507711199638,-0.2106595511339226 51.555089214653826)"
disabled (blue badge),at any time,N/A,N/A,N/A,N/A,Healey Street,NW1 8SN,CA-F,N/A,5,"The information provider and/ or licensor are not liable for any errors or omissions contained within this dataset and shall not be liable for any loss, injury or damage caused by its use.",528698,184607,-0.145395,51.545693,46045294,Defined By Custodian,2019-11-29T23:02:03.000,"{'latitude': '51.545693', 'longitude': '-0.145395', 'human_address': '{""address"": """", ""city"": """", ""state"": """", ""zip"": """"}'}",{'url': 'http://opendatacommunities.org/id/london-borough-council/camden'},12,86,1,"LINESTRING (528696.5403474873 184604.5567505384,528698.4202214184 184604.34681063308,528699.203502223 184610.10516232206,528697.2824029864 184610.3850821958)","LINESTRING (-0.14541742878519903 51.54567100314661,-0.1453904105398221 51.54566868822211,-0.1453770159203638 51.54572025955115,-0.14540460280312995 51.545723212772785)"
disabled (dedicated),at any time,N/A,N/A,N/A,N/A,Hilgrove Road,NW6 4TN,CA-K,N/A,5,"The information provider and/ or licensor are not liable for any errors or omissions contained within this dataset and shall not be liable for any loss, injury or damage caused by its use.",526394,184120,-0.178778,51.541837,46046663,Defined By Custodian,2019-11-29T23:02:06.000,"{'latitude': '51.541837', 'longitude': '-0.178778', 'human_address': '{""address"": """", ""city"": """", ""state"": """", ""zip"": """"}'}",{'url': 'http://opendatacommunities.org/id/london-borough-council/camden'},17,120,1,"LINESTRING (526398.0316840892 184119.12570373013,526397.6606563397 184120.70525158927,526391.6994771636 184119.5055949874,526392.1034851576 184117.80608146806)","LINESTRING (-0.1787210905570586 51.541827319630364,-0.17872587085104083 51.54184159810802,-0.17881221585178972 51.54183215026644,-0.17880700327707835 51.54181678627711)"
disabled (blue badge),at any time,N/A,N/A,N/A,N/A,Morwell Street,WC1B 3AN,CA-C,N/A,1192,"The information provider and/ or licensor are not liable for any errors or omissions contained within this dataset and shall not be liable for any loss, injury or damage caused by its use.",0,0,-0.130809,51.51795,46129324,Defined By Custodian,2019-11-29T23:02:14.000,"{'latitude': '51.51795', 'longitude': '-0.130809', 'human_address': '{""address"": """", ""city"": """", ""state"": """", ""zip"": """"}'}",{'url': 'http://opendatacommunities.org/id/london-borough-council/camden'},2,14,1,,
disabled (dedicated),at any time,N/A,N/A,N/A,N/A,Mill Lane,NW6 1LX,CA-P,N/A,6,"The information provider and/ or licensor are not liable for any errors or omissions contained within this dataset and shall not be liable for any loss, injury or damage caused by its use.",0,0,-0.201693,51.55091,46126916,Defined By Custodian,2019-11-29T23:02:13.000,"{'latitude': '51.55091', 'longitude': '-0.201693', 'human_address': '{""address"": """", ""city"": """", ""state"": """", ""zip"": """"}'}",{'url': 'http://opendatacommunities.org/id/london-borough-council/camden'},5,34,1,,
disabled (blue badge),at any time,N/A,N/A,N/A,N/A,Baldwin's Gardens,EC1N 7SB,CA-D,N/A,997,"The information provider and/ or licensor are not liable for any errors or omissions contained within this dataset and shall not be liable for any loss, injury or damage caused by its use.",531111,181784,-0.111667,51.519769,46042988,Defined By Custodian,2019-11-29T23:01:58.000,"{'latitude': '51.519769', 'longitude': '-0.111667', 'human_address': '{""address"": """", ""city"": """", ""state"": """", ""zip"": """"}'}",{'url': 'http://opendatacommunities.org/id/london-borough-council/camden'},11,73,1,"LINESTRING (531111.4362933885 181784.17407668085,531110.661257645 181786.0235472754,531105.2524975627 181783.92414822214,531106.1264740394 181781.8747348606)","LINESTRING (-0.1116611853279633 51.51976964920051,-0.11167166176202485 51.51978644965773,-0.11175035430543988 51.51976883687115,-0.11173852697988339 51.519750216642244)"
disabled (blue badge),at any time,N/A,N/A,N/A,N/A,Brill Place,NW1 1AT,CA-G,N/A,19,"The information provider and/ or licensor are not liable for any errors or omissions contained within this dataset and shall not be liable for any loss, injury or damage caused by its use.",0,0,-0.128033,51.531854,46126953,Defined By Custodian,2019-11-29T23:02:13.000,"{'latitude': '51.531854', 'longitude': '-0.128033', 'human_address': '{""address"": """", ""city"": """", ""state"": """", ""zip"": """"}'}",{'url': 'http://opendatacommunities.org/id/london-borough-council/camden'},16,115,2,,
disabled (blue badge),at any time,N/A,N/A,N/A,N/A,Bartholomew Road,NW5 2AH,CA-M,N/A,5,"The information provider and/ or licensor are not liable for any errors or omissions contained within this dataset and shall not be liable for any loss, injury or damage caused by its use.",529278,184625,-0.137029,51.545722,46048369,Defined By Custodian,2019-11-29T23:02:11.000,"{'latitude': '51.545722', 'longitude': '-0.137029', 'human_address': '{""address"": """", ""city"": """", ""state"": """", ""zip"": """"}'}",{'url': 'http://opendatacommunities.org/id/london-borough-council/camden'},4,25,1,"LINESTRING (529281.3790215106 184623.19141642077,529281.5109424882 184625.05088415366,529275.4095972733 184625.59072962453,529275.2446960513 184623.80124186006)","LINESTRING (-0.13698122383070518 51.545704948785165,-0.13697863957240186 51.54572162939417,-0.13706638089361547 51.54572787701907,-0.13706941477093587 51.545711832855254)"
disabled (blue badge),at any time,N/A,N/A,N/A,N/A,Frognal,NW3 6AP,CA-B,N/A,6,"The information provider and/ or licensor are not liable for any errors or omissions contained within this dataset and shall not be liable for any loss, injury or damage caused by its use.",526268,185062,-0.180256,51.550331,46035102,Defined By Custodian,2019-11-29T23:01:53.000,"{'latitude': '51.550331', 'longitude': '-0.180256', 'human_address': '{""address"": """", ""city"": """", ""state"": """", ""zip"": """"}'}",{'url': 'http://opendatacommunities.org/id/london-borough-council/camden'},6,40,1,"LINESTRING (526266.7125959321 185059.24659692374,526268.6089599853 185059.65647959604,526267.4546514312 185065.97467103257,526265.4511015835 185065.55479122192)","LINESTRING (-0.18027649315732677 51.55030559792038,-0.1802490101137482 51.55030885763353,-0.18026338260427516 51.55036589754874,-0.18029241434692866 51.55036257194822)"
disabled (blue badge),at any time,N/A,N/A,N/A,N/A,Sharpleshall Street,NW1 8YL,CA-J,N/A,6,"The information provider and/ or licensor are not liable for any errors or omissions contained within this dataset and shall not be liable for any loss, injury or damage caused by its use.",527903,184072,-0.157048,51.541066,46047827,Defined By Custodian,2019-11-29T23:02:10.000,"{'latitude': '51.541066', 'longitude': '-0.157048', 'human_address': '{""address"": """", ""city"": """", ""state"": """", ""zip"": """"}'}",{'url': 'http://opendatacommunities.org/id/london-borough-council/camden'},3,18,1,"LINESTRING (527905.3855095312 184069.6198746263,527906.2347508246 184071.56931660435,527900.875461109 184074.13858116002,527900.05920006 184072.09916493684)","LINESTRING (-0.15701488152979184 51.541043208308785,-0.15700193426636377 51.541060535662545,-0.15707823827464323 51.54108483866236,-0.15709074289203545 51.54106669523906)"
disabled (blue badge),at any time,N/A,N/A,N/A,N/A,Endsleigh Gardens,WC1H 0EB,CA-D,N/A,19,"The information provider and/ or licensor are not liable for any errors or omissions contained within this dataset and shall not be liable for any loss, injury or damage caused by its use.",529709,182492,-0.131602,51.526455,46036256,Defined By Custodian,2019-11-29T23:01:56.000,"{'latitude': '51.526455', 'longitude': '-0.131602', 'human_address': '{""address"": """", ""city"": """", ""state"": """", ""zip"": """"}'}",{'url': 'http://opendatacommunities.org/id/london-borough-council/camden'},2,11,3,"LINESTRING (529715.9267217829 182500.02916529326,529717.0892753982 182498.12970900696,529701.2670031452 182487.84265364593,529700.0879594077 182489.85207845407)","LINESTRING (-0.13149990923365204 51.52652479729452,-0.13148385939810664 51.52650746038826,-0.13171559720037948 51.526418642263195,-0.1317318441981425 51.52643697119353)"
disabled (dedicated),at any time,N/A,N/A,N/A,N/A,Hilgrove Road,NW6 4TN,CA-K,N/A,5,"The information provider and/ or licensor are not liable for any errors or omissions contained within this dataset and shall not be liable for any loss, injury or damage caused by its use.",526419,184125,-0.178416,51.541876,46046665,Defined By Custodian,2019-11-29T23:02:06.000,"{'latitude': '51.541876', 'longitude': '-0.178416', 'human_address': '{""address"": """", ""city"": """", ""state"": """", ""zip"": """"}'}",{'url': 'http://opendatacommunities.org/id/london-borough-council/camden'},17,120,1,"LINESTRING (526422.8575630647 184124.44418133175,526422.5195155595 184125.9837406375,526416.4676407113 184124.66411837543,526416.8634036442 184123.15455048476)","LINESTRING (-0.1783613828340992 51.54186956273674,-0.1783657020564222 51.54188347447004,-0.17845339741425162 51.54187296904946,-0.17844823558464973 51.54185931394019)"
disabled (blue badge),at any time,N/A,N/A,N/A,N/A,Chetwynd Road,NW5 1DD,CA-U,N/A,6,"The information provider and/ or licensor are not liable for any errors or omissions contained within this dataset and shall not be liable for any loss, injury or damage caused by its use.",528960,186107,-0.141069,51.559114,46044956,Defined By Custodian,2019-11-29T23:02:03.000,"{'latitude': '51.559114', 'longitude': '-0.141069', 'human_address': '{""address"": """", ""city"": """", ""state"": """", ""zip"": """"}'}",{'url': 'http://opendatacommunities.org/id/london-borough-council/camden'},10,70,1,"LINESTRING (528962.707409953 186110.85557698447,528963.6308567964 186109.66591752094,528957.323385054 186105.64706790468,528956.5318591883 186106.79673881482)","LINESTRING (-0.14102918595563374 51.559147178114635,-0.14101630808157198 51.559136276193165,-0.14110871830307625 51.55910160010241,-0.1411197088753991 51.559112112532254)"
disabled (blue badge),at any time,N/A,N/A,N/A,N/A,Fleet Road,NW3 2QS,CA-B,N/A,29,"The information provider and/ or licensor are not liable for any errors or omissions contained within this dataset and shall not be liable for any loss, injury or damage caused by its use.",527716,185394,-0.159263,51.552989,46046382,Defined By Custodian,2019-11-29T23:02:06.000,"{'latitude': '51.552989', 'longitude': '-0.159263', 'human_address': '{""address"": """", ""city"": """", ""state"": """", ""zip"": """"}'}",{'url': 'http://opendatacommunities.org/id/london-borough-council/camden'},7,47,4,"MULTILINESTRING ((527721.7597537487 185396.28012208073,527716.9034127601 185394.08075164395,527715.9469856723 185395.96021365357),(527721.7597537487 185396.28012208073,527720.7950815998 185398.2795497505),(527726.4429484541 185398.59945817766,527721.7597537487 185396.28012208073),(527726.4429484541 185398.59945817766,527725.4617861831 185400.55889729405),(527731.9424042086 185401.32867694693,527726.4429484541 185398.59945817766),(527731.9424042086 185401.32867694693,527730.9612419375 185403.33810175507),(527736.5926186695 185403.6380159055,527731.9424042086 185401.32867694693),(527736.5926186695 185403.6380159055,527735.8505631705 185405.59745502193),(527736.5926186695 185403.6380159055,527736.2463261033 185403.6380159055))","MULTILINESTRING ((-0.15917997878988763 51.55300735863676,-0.15925078409370141 51.5529886911773,-0.1592638897282505 51.55300579786583),(-0.15917997878988763 51.55300735863676,-0.15919315973409928 51.55302554531155),(-0.15911162591781927 51.553027143316555,-0.15917997878988763 51.55300735863676),(-0.15911162591781927 51.553027143316555,-0.15912505906510863 51.55304497435612),(-0.15903135730899653 51.55305042694755,-0.15911162591781927 51.553027143316555),(-0.15903135730899653 51.55305042694755,-0.15904477229328445 51.55306870721056),(-0.15896348336707117 51.553070129155856,-0.15903135730899653 51.55305042694755),(-0.15896348336707117 51.553070129155856,-0.15897346958030784 51.55308790614591),(-0.15896348336707117 51.553070129155856,-0.1589684754082606 51.5530702074595))"
disabled (blue badge),at any time,N/A,N/A,N/A,N/A,Dornfell Street,NW6 1QN,CA-P,N/A,6,"The information provider and/ or licensor are not liable for any errors or omissions contained within this dataset and shall not be liable for any loss, injury or damage caused by its use.",524923,185092,-0.199634,51.550899,46043861,Defined By Custodian,2019-11-29T23:02:00.000,"{'latitude': '51.550899', 'longitude': '-0.199634', 'human_address': '{""address"": """", ""city"": """", ""state"": """", ""zip"": """"}'}",{'url': 'http://opendatacommunities.org/id/london-borough-council/camden'},5,32,1,"LINESTRING (524927.6487126246 185092.24715061352,524927.0055978587 185093.99664982458,524920.6486557497 185091.80727652617,524921.2587902712 185090.05777731512)","LINESTRING (-0.19956749097767215 51.55089996167551,-0.19957614139874394 51.550915827081816,-0.19966855483442636 51.55089755686988,-0.19966037980273738 51.55088169876396)"
disabled (blue badge),at any time,N/A,N/A,N/A,N/A,Lawford Road,NW5 2AL,CA-M,N/A,5,"The information provider and/ or licensor are not liable for any errors or omissions contained within this dataset and shall not be liable for any loss, injury or damage caused by its use.",529331,184693,-0.13624,51.546321,46048390,Defined By Custodian,2019-11-29T23:02:11.000,"{'latitude': '51.546321', 'longitude': '-0.13624', 'human_address': '{""address"": """", ""city"": """", ""state"": """", ""zip"": """"}'}",{'url': 'http://opendatacommunities.org/id/london-borough-council/camden'},4,25,1,"LINESTRING (529334.5184403071 184690.7420802444,529334.6750964681 184692.7215136375,529328.9942493694 184693.37132763016,529328.8211030862 184691.33191140697)","LINESTRING (-0.13619050064549929 51.54629985554061,-0.13618751546373614 51.54631760858212,-0.13626915663855177 51.54632474881821,-0.13627240150300776 51.54630646049159)"
disabled (blue badge),at any time,N/A,N/A,N/A,N/A,Iverson Road,NW6 2RA,CA-Q,N/A,5,"The information provider and/ or licensor are not liable for any errors or omissions contained within this dataset and shall not be liable for any loss, injury or damage caused by its use.",525224,184711,-0.195431,51.547409,46044278,Defined By Custodian,2019-11-29T23:02:01.000,"{'latitude': '51.547409', 'longitude': '-0.195431', 'human_address': '{""address"": """", ""city"": """", ""state"": """", ""zip"": """"}'}",{'url': 'http://opendatacommunities.org/id/london-borough-council/camden'},18,132,1,"LINESTRING (525227.9173478044 184711.49613945675,525227.1258219387 184713.15566442267,525221.8324927118 184710.5264170369,525222.6982241274 184708.76692068749)","LINESTRING (-0.19537450111499186 51.54741160004685,-0.19538531985719923 51.547426689899495,-0.19546255411793756 51.54740423402941,-0.19545070131258568 51.547388229276606)"
disabled (blue badge),at any time,N/A,N/A,N/A,N/A,Downshire Hill,NW3 1PA,CA-H,N/A,6,"The information provider and/ or licensor are not liable for any errors or omissions contained within this dataset and shall not be liable for any loss, injury or damage caused by its use.",526856,185574,-0.171596,51.5548,46049288,Defined By Custodian,2019-11-29T23:02:13.000,"{'latitude': '51.5548', 'longitude': '-0.171596', 'human_address': '{""address"": """", ""city"": """", ""state"": """", ""zip"": """"}'}",{'url': 'http://opendatacommunities.org/id/london-borough-council/camden'},8,55,1,"LINESTRING (526856.6796979601 185578.5579455965,526858.2545046305 185577.36828613296,526853.9258475524 185572.31973126676,526852.3263056988 185573.6793420822)","LINESTRING (-0.17158506835912563 51.5548404125818,-0.17156279407323335 51.55482936745261,-0.17162701672310146 51.55478496900431,-0.17164958635521582 51.55479754701373)"
disabled (blue badge),at any time,N/A,N/A,N/A,N/A,St Augustine's Road,NW1 9RP,CA-N,N/A,6,"The information provider and/ or licensor are not liable for any errors or omissions contained within this dataset and shall not be liable for any loss, injury or damage caused by its use.",529849,184561,-0.128822,51.545016,46048323,Defined By Custodian,2019-11-29T23:02:11.000,"{'latitude': '51.545016', 'longitude': '-0.128822', 'human_address': '{""address"": """", ""city"": """", ""state"": """", ""zip"": """"}'}",{'url': 'http://opendatacommunities.org/id/london-borough-council/camden'},4,23,1,"LINESTRING (529853.2564594828 184562.5587723346,529851.8053287291 184563.73843465978,529847.6910432396 184558.96979966733,529849.2658499099 184557.72015737373)","LINESTRING (-0.1287610651257247 51.54502889596052,-0.12878154497885527 51.545039830913346,-0.12884260247777612 51.54499792171169,-0.12882036591566606 51.54498632944616)"
disabled (blue badge),at any time,N/A,N/A,N/A,N/A,Cressy Road,NW3 2ND,CA-B,N/A,6,"The information provider and/ or licensor are not liable for any errors or omissions contained within this dataset and shall not be liable for any loss, injury or damage caused by its use.",527563,185496,-0.161432,51.55394,46046043,Defined By Custodian,2019-11-29T23:02:05.000,"{'latitude': '51.55394', 'longitude': '-0.161432', 'human_address': '{""address"": """", ""city"": """", ""state"": """", ""zip"": """"}'}",{'url': 'http://opendatacommunities.org/id/london-borough-council/camden'},7,46,1,"LINESTRING (527560.8491412996 185493.762218121,527562.6877899251 185493.03242702154,527564.9881619724 185499.27064135124,527563.1247781635 185499.95044675897)","LINESTRING (-0.16146428894730497 51.553919774594455,-0.16143804750859045 51.55391280087278,-0.16140262474998832 51.55396834336879,-0.1614292409115966 51.553974873469386)"
disabled (blue badge),at any time,N/A,N/A,N/A,N/A,Drummond Crescent,NW1 1LE,CA-G,N/A,5,"The information provider and/ or licensor are not liable for any errors or omissions contained within this dataset and shall not be liable for any loss, injury or damage caused by its use.",529720,182858,-0.131309,51.529741,46049526,Defined By Custodian,2019-11-29T23:02:13.000,"{'latitude': '51.529741', 'longitude': '-0.131309', 'human_address': '{""address"": """", ""city"": """", ""state"": """", ""zip"": """"}'}",{'url': 'http://opendatacommunities.org/id/london-borough-council/camden'},16,114,1,"LINESTRING (529721.2860114987 182860.43599991,529720.9644541157 182858.4365722402,529720.7335924049 182858.4765607936,529715.0197650618 182859.5962402887,529715.2671168948 182861.47570229828)","LINESTRING (-0.13129002892709227 51.529762493800284,-0.131295398017769 51.52974459901669,-0.1312987095641499 51.529745011365755,-0.13138062251436483 51.52975638493249,-0.13137636677628695 51.52977321863331)"
disabled (blue badge),at any time,N/A,N/A,N/A,N/A,St Augustine's Road,NW1 9AX,CA-N,N/A,5,"The information provider and/ or licensor are not liable for any errors or omissions contained within this dataset and shall not be liable for any loss, injury or damage caused by its use.",529918,184651,-0.127795,51.545809,46048420,Defined By Custodian,2019-11-29T23:02:11.000,"{'latitude': '51.545809', 'longitude': '-0.127795', 'human_address': '{""address"": """", ""city"": """", ""state"": """", ""zip"": """"}'}",{'url': 'http://opendatacommunities.org/id/london-borough-council/camden'},4,28,1,"LINESTRING (529918.3099915705 184655.0223049237,529919.7611223243 184653.8126511835,529919.6951618355 184653.73267407672,529916.314686784 184649.45389886337,529916.232236173 184649.34393034154,529914.7068998694 184650.69354401864)","LINESTRING (-0.12778933475281903 51.545844891669866,-0.1277688658544438 51.5458336870154,-0.12776984606626862 51.54583298344602,-0.12782014829014496 51.545795308340274,-0.1278213772422488 51.545794339035595,-0.1278428640187792 51.5458068185391)"
disabled (blue badge),at any time,N/A,N/A,N/A,N/A,Abbey Road,NW6 4SL,CA-K,N/A,9,"The information provider and/ or licensor are not liable for any errors or omissions contained within this dataset and shall not be liable for any loss, injury or damage caused by its use.",525752,183921,-0.188102,51.540191,46043692,Defined By Custodian,2019-11-29T23:02:00.000,"{'latitude': '51.540191', 'longitude': '-0.188102', 'human_address': '{""address"": """", ""city"": """", ""state"": """", ""zip"": """"}'}",{'url': 'http://opendatacommunities.org/id/london-borough-council/camden'},13,94,1,"LINESTRING (525754.7767521647 183917.9932772883,525755.7579144358 183919.28290813533,525748.7743476832 183924.23149161803,525749.6565692209 183921.4422900187)","LINESTRING (-0.1880637406612619 51.54016326344127,-0.18804913974728688 51.540174635093685,-0.18814801831418823 51.540220662800564,-0.1881363000060025 51.540195399633184)"
disabled (blue badge),at any time,N/A,N/A,N/A,N/A,Sumatra Road,NW6 1TW,CA-P,N/A,5,"The information provider and/ or licensor are not liable for any errors or omissions contained within this dataset and shall not be liable for any loss, injury or damage caused by its use.",525067,185045,-0.197575,51.550445,46044489,Defined By Custodian,2019-11-29T23:02:01.000,"{'latitude': '51.550445', 'longitude': '-0.197575', 'human_address': '{""address"": """", ""city"": """", ""state"": """", ""zip"": """"}'}",{'url': 'http://opendatacommunities.org/id/london-borough-council/camden'},18,130,1,"LINESTRING (525069.58743948 185045.8504315362,525067.7570359156 185045.21061468188,525067.79001616 185045.10064616005,525069.6451549077 185039.4922515463,525071.5332738999 185040.13206840062)","LINESTRING (-0.19753787562013805 51.55045156948533,-0.19756448849865693 51.550446224704,-0.1975640521664677 51.55044522909826,-0.19753930332753322 51.550394414860136,-0.19751185850247935 51.55039974685485)"
disabled (blue badge),at any time,N/A,N/A,N/A,N/A,Great Ormond Street,WC1N 3EP,CA-D,N/A,7,"The information provider and/ or licensor are not liable for any errors or omissions contained within this dataset and shall not be liable for any loss, injury or damage caused by its use.",530684,182088,-0.117705,51.5226,46042555,Defined By Custodian,2019-11-29T23:01:57.000,"{'latitude': '51.5226', 'longitude': '-0.117705', 'human_address': '{""address"": """", ""city"": """", ""state"": """", ""zip"": """"}'}",{'url': 'http://opendatacommunities.org/id/london-borough-council/camden'},11,79,1,"LINESTRING (530681.0111236667 182089.6466360703,530681.7861594101 182087.46725991022,530687.9946904193 182089.49667899506,530687.1619392481 182091.6060751867)","LINESTRING (-0.11774813905634904 51.5226145052506,-0.11773778203284843 51.522594740492465,-0.11764759146228511 51.522611543486946,-0.11765880582478495 51.52263069269629)"
disabled (blue badge),at any time,N/A,N/A,N/A,N/A,Priory Road,NW6 3NS,CA-R,CA-R;CA-K,5,"The information provider and/ or licensor are not liable for any errors or omissions contained within this dataset and shall not be liable for any loss, injury or damage caused by its use.",525686,184485,-0.188852,51.545275,46046502,Defined By Custodian,2019-11-29T23:02:06.000,"{'latitude': '51.545275', 'longitude': '-0.188852', 'human_address': '{""address"": """", ""city"": """", ""state"": """", ""zip"": """"}'}",{'url': 'http://opendatacommunities.org/id/london-borough-council/camden'},17,123,1,"LINESTRING (525688.5029510341 184487.99011739006,525686.7302628973 184487.9801202517,525686.5736067365 184482.26175711612,525688.4287454842 184482.21177142436)","LINESTRING (-0.188815377642184 51.54530062848116,-0.18884093173149347 51.54530093305866,-0.18884523136087417 51.5452495764247,-0.18881851032171287 51.54524871443162)"
disabled (blue badge),at any time,N/A,N/A,N/A,N/A,Ulysses Road,NW6 1EE,CA-P,N/A,6,"The information provider and/ or licensor are not liable for any errors or omissions contained within this dataset and shall not be liable for any loss, injury or damage caused by its use.",524973,185401,-0.198804,51.553665,46043875,Defined By Custodian,2019-11-29T23:02:00.000,"{'latitude': '51.553665', 'longitude': '-0.198804', 'human_address': '{""address"": """", ""city"": """", ""state"": """", ""zip"": """"}'}",{'url': 'http://opendatacommunities.org/id/london-borough-council/camden'},5,32,1,"LINESTRING (524976.7150712373 185402.73827345413,524975.4123515832 185404.0578957162,524970.9435284665 185399.48920349072,524972.2709833038 185398.21956692042)","LINESTRING (-0.19875004780155994 51.553679555005445,-0.19876835995883763 51.55369170309293,-0.19883440415551037 51.55365163248592,-0.19881571767704334 51.553639928165325)"
disabled (blue badge),at any time,N/A,N/A,N/A,N/A,Lithos Road,NW3 6DX,CA-R,CA-R;CA-K,4,"The information provider and/ or licensor are not liable for any errors or omissions contained within this dataset and shall not be liable for any loss, injury or damage caused by its use.",526018,184953,-0.183899,51.549407,46044253,Defined By Custodian,2019-11-29T23:02:01.000,"{'latitude': '51.549407', 'longitude': '-0.183899', 'human_address': '{""address"": """", ""city"": """", ""state"": """", ""zip"": """"}'}",{'url': 'http://opendatacommunities.org/id/london-borough-council/camden'},18,131,1,"LINESTRING (526021.9909373902 184953.15696476508,526021.2818621356 184954.76650403923,526016.3183353527 184952.53714218744,526017.0026754241 184950.89761149822)","LINESTRING (-0.18384213698917354 51.549406816285554,-0.18385178176802205 51.54942143951498,-0.1839241277577258 51.54940251143863,-0.18391485024835058 51.549387624198346)"
disabled (blue badge),at any time,N/A,N/A,N/A,N/A,Cubitt Street,WC1X 0LS,CA-D,N/A,11,"The information provider and/ or licensor are not liable for any errors or omissions contained within this dataset and shall not be liable for any loss, injury or damage caused by its use.",530762,182694,-0.116357,51.528027,46043164,Defined By Custodian,2019-11-29T23:01:58.000,"{'latitude': '51.528027', 'longitude': '-0.116357', 'human_address': '{""address"": """", ""city"": """", ""state"": """", ""zip"": """"}'}",{'url': 'http://opendatacommunities.org/id/london-borough-council/camden'},14,99,2,"LINESTRING (530761.3345089136 182688.23529184994,530763.0165013783 182688.34526037177,530762.826864973 182700.471789189,530761.0294416528 182700.5717605725)","LINESTRING (-0.1163689492056362 51.527975328828425,-0.11634467526952648 51.52797592797551,-0.1163429076485974 51.52808495048772,-0.11636876680377552 51.528086264734426)"
disabled (blue badge),at any time,N/A,N/A,N/A,N/A,Lady Margaret Road,NW5 2QE,CA-M,N/A,5,"The information provider and/ or licensor are not liable for any errors or omissions contained within this dataset and shall not be liable for any loss, injury or damage caused by its use.",529202,185216,-0.137907,51.551051,46045240,Defined By Custodian,2019-11-29T23:02:03.000,"{'latitude': '51.551051', 'longitude': '-0.137907', 'human_address': '{""address"": """", ""city"": """", ""state"": """", ""zip"": """"}'}",{'url': 'http://opendatacommunities.org/id/london-borough-council/camden'},12,84,1,"LINESTRING (529204.4608464984 185219.6506817321,529202.5892176285 185219.78064453063,529202.1769645733 185214.00229856497,529204.0073681378 185213.8723357664)","LINESTRING (-0.13787091746550917 51.55108284346996,-0.13789784903845403 51.55108443949539,-0.13790591257819002 51.55103260483027,-0.13787957529234407 51.55103101823542)"
disabled (blue badge),at any time,N/A,N/A,N/A,N/A,Nassington Road,NW3 2UE,CA-H,N/A,6,"The information provider and/ or licensor are not liable for any errors or omissions contained within this dataset and shall not be liable for any loss, injury or damage caused by its use.",527499,185786,-0.16225,51.556561,46049195,Defined By Custodian,2019-11-29T23:02:12.000,"{'latitude': '51.556561', 'longitude': '-0.16225', 'human_address': '{""address"": """", ""city"": """", ""state"": """", ""zip"": """"}'}",{'url': 'http://opendatacommunities.org/id/london-borough-council/camden'},8,52,1,"LINESTRING (527502.8039111479 185784.41901847735,527502.7049704146 185786.41844614715,527496.9828980105 185786.2684890719,527497.106573927 185783.90916442155)","LINESTRING (-0.16219578067342447 51.55654497087332,-0.16219648276081783 51.55656296177863,-0.1622790312241851 51.55656290568018,-0.1622781028730751 51.55654167484944)"
disabled (blue badge),at any time,N/A,N/A,N/A,N/A,Broadhurst Gardens,NW6 3QP,CA-R,CA-R;CA-K,5,"The information provider and/ or licensor are not liable for any errors or omissions contained within this dataset and shall not be liable for any loss, injury or damage caused by its use.",525924,184636,-0.185368,51.546579,46046529,Defined By Custodian,2019-11-29T23:02:06.000,"{'latitude': '51.546579', 'longitude': '-0.185368', 'human_address': '{""address"": """", ""city"": """", ""state"": """", ""zip"": """"}'}",{'url': 'http://opendatacommunities.org/id/london-borough-council/camden'},17,123,1,"LINESTRING (525921.4506623235 184637.07744158743,525921.8381801952 184635.36793092976,525928.0219760211 184636.7075474685,525927.5849877828 184638.44704954122)","LINESTRING (-0.18540447567146817 51.54658860867194,-0.18539950160814603 51.546573158780895,-0.1853098903368893 51.54658381945331,-0.1853155666981657 51.54659954991164)"
disabled (green permit),at any time,N/A,N/A,N/A,N/A,Saffron Street,EC1M 3JU,CA-D,N/A,1,"The information provider and/ or licensor are not liable for any errors or omissions contained within this dataset and shall not be liable for any loss, injury or damage caused by its use.",531441,181992,-0.106836,51.521561,46042502,Defined By Custodian,2019-11-29T23:01:57.000,"{'latitude': '51.521561', 'longitude': '-0.106836', 'human_address': '{""address"": """", ""city"": """", ""state"": """", ""zip"": """"}'}",{'url': 'http://opendatacommunities.org/id/london-borough-council/camden'},11,75,1,"LINESTRING (531440.2410850392 181994.37390760513,531441.1315516382 181992.60441411738,531437.6438907924 181991.1148405034)","LINESTRING (-0.10684647630870678 51.521582327735345,-0.10683430864108183 51.52156621877757,-0.10688510474750368 51.52155364311078)"
disabled (green permit),at any time,N/A,N/A,N/A,N/A,Betterton Street,WC2H 9BT,CA-C,N/A,4,"The information provider and/ or licensor are not liable for any errors or omissions contained within this dataset and shall not be liable for any loss, injury or damage caused by its use.",530274,181224,-0.123931,51.51493,46042437,Defined By Custodian,2019-11-29T23:01:57.000,"{'latitude': '51.51493', 'longitude': '-0.123931', 'human_address': '{""address"": """", ""city"": """", ""state"": """", ""zip"": """"}'}",{'url': 'http://opendatacommunities.org/id/london-borough-council/camden'},11,77,1,"LINESTRING (530269.5578395384 181219.43573135065,530274.2245441217 181224.0444121295,530275.5767341423 181222.5748327922)","LINESTRING (-0.12399694856789682 51.51488901559294,-0.12392802993731379 51.51492935802158,-0.12390909674943895 51.51491583967756)"
disabled (blue badge),at any time,N/A,N/A,N/A,N/A,Broadhurst Gardens,NW6 3BH,CA-R,CA-R;CA-K,5,"The information provider and/ or licensor are not liable for any errors or omissions contained within this dataset and shall not be liable for any loss, injury or damage caused by its use.",525712,184605,-0.188434,51.546347,46046481,Defined By Custodian,2019-11-29T23:02:06.000,"{'latitude': '51.546347', 'longitude': '-0.188434', 'human_address': '{""address"": """", ""city"": """", ""state"": """", ""zip"": """"}'}",{'url': 'http://opendatacommunities.org/id/london-borough-council/camden'},17,123,1,"LINESTRING (525711.0367030234 184608.73555436824,525710.0885209967 184607.07602940232,525715.5797316901 184604.2668335263,525716.3795026169 184605.87637280047)","LINESTRING (-0.1884474684491247 51.54638076495152,-0.18846172798824903 51.5463660616625,-0.18838358225804638 51.54633959306507,-0.1883714797166374 51.546353880148764)"
disabled (dedicated),at any time,N/A,N/A,N/A,N/A,Kingsgate Place,NW6 4TB,CA-Q,N/A,6,"The information provider and/ or licensor are not liable for any errors or omissions contained within this dataset and shall not be liable for any loss, injury or damage caused by its use.",0,0,-0.195365,51.540606,46127345,Defined By Custodian,2019-11-29T23:02:13.000,"{'latitude': '51.540606', 'longitude': '-0.195365', 'human_address': '{""address"": """", ""city"": """", ""state"": """", ""zip"": """"}'}",{'url': 'http://opendatacommunities.org/id/london-borough-council/camden'},13,90,1,,
disabled (blue badge),at any time,N/A,N/A,N/A,N/A,Kidderpore Avenue,NW3 7SU,CA-S,N/A,12,"The information provider and/ or licensor are not liable for any errors or omissions contained within this dataset and shall not be liable for any loss, injury or damage caused by its use.",525326,185834,-0.193561,51.557478,46035161,Defined By Custodian,2019-11-29T23:01:53.000,"{'latitude': '51.557478', 'longitude': '-0.193561', 'human_address': '{""address"": """", ""city"": """", ""state"": """", ""zip"": """"}'}",{'url': 'http://opendatacommunities.org/id/london-borough-council/camden'},6,37,2,"MULTILINESTRING ((525331.5000504176 185831.42556299394,525326.72616004 185834.2747474234,525327.7650377388 185835.92427525096),(525332.4399873831 185833.10508223655,525331.5000504176 185831.42556299394),(525337.2138777607 185830.22590639206,525336.2821858563 185828.56638142615,525331.5000504176 185831.42556299394))","MULTILINESTRING ((-0.1934828552574542 51.55745357878258,-0.19355066851718555 51.55748024488991,-0.19353510353080397 51.557494838712245),(-0.1934687060557529 51.55746846410396,-0.1934828552574542 51.55745357878258),(-0.19340090354003595 51.55744152841614,-0.1934149267672737 51.55742682096368,-0.1934828552574542 51.55745357878258))"
disabled (blue badge),at any time,N/A,N/A,N/A,N/A,Glenhurst Avenue,NW5 1PT,CA-U,N/A,5,"The information provider and/ or licensor are not liable for any errors or omissions contained within this dataset and shall not be liable for any loss, injury or damage caused by its use.",528436,185814,-0.148731,51.5566,46044662,Defined By Custodian,2019-11-29T23:02:02.000,"{'latitude': '51.5566', 'longitude': '-0.148731', 'human_address': '{""address"": """", ""city"": """", ""state"": """", ""zip"": """"}'}",{'url': 'http://opendatacommunities.org/id/london-borough-council/camden'},10,71,1,"LINESTRING (528438.1566227011 185818.11937185153,528439.2697059497 185816.58980968417,528434.1989933725 185813.21077692223,528433.1601156738 185814.67035912117)","LINESTRING (-0.14869875246526412 51.556635929507905,-0.14868326370440457 51.55662193050608,-0.1487576000002907 51.556592716648886,-0.14877204451400647 51.55660606987106)"
disabled (dedicated),at any time,N/A,N/A,N/A,N/A,Chester Road,N19 5DF,CA-U,N/A,6,"The information provider and/ or licensor are not liable for any errors or omissions contained within this dataset and shall not be liable for any loss, injury or damage caused by its use.",0,0,-0.142664,51.563452,46127153,Defined By Custodian,2019-11-29T23:02:13.000,"{'latitude': '51.563452', 'longitude': '-0.142664', 'human_address': '{""address"": """", ""city"": """", ""state"": """", ""zip"": """"}'}",{'url': 'http://opendatacommunities.org/id/london-borough-council/camden'},10,67,1,,
disabled (blue badge),at any time,N/A,N/A,N/A,N/A,Compayne Gardens,NW6 3JU,CA-R,CA-R;CA-K,5,"The information provider and/ or licensor are not liable for any errors or omissions contained within this dataset and shall not be liable for any loss, injury or damage caused by its use.",526128,184583,-0.182446,51.546057,46046552,Defined By Custodian,2019-11-29T23:02:06.000,"{'latitude': '51.546057', 'longitude': '-0.182446', 'human_address': '{""address"": """", ""city"": """", ""state"": """", ""zip"": """"}'}",{'url': 'http://opendatacommunities.org/id/london-borough-council/camden'},17,123,1,"LINESTRING (526130.9329297191 184582.13316922178,526130.8999494747 184583.97264267798,526125.3345332314 184583.89266557118,526125.3675134759 184581.9732150082)","LINESTRING (-0.18240472504323005 51.54604808750799,-0.18240454131407877 51.54606462633508,-0.18248478792022776 51.546065150129664,-0.18248500027583972 51.546047892542845)"
disabled (blue badge),at any time,N/A,N/A,N/A,N/A,Broomsleigh Street,NW6 1QW,CA-P,N/A,5,"The information provider and/ or licensor are not liable for any errors or omissions contained within this dataset and shall not be liable for any loss, injury or damage caused by its use.",524968,185129,-0.198972,51.551222,46043859,Defined By Custodian,2019-11-29T23:02:00.000,"{'latitude': '51.551222', 'longitude': '-0.198972', 'human_address': '{""address"": """", ""city"": """", ""state"": """", ""zip"": """"}'}",{'url': 'http://opendatacommunities.org/id/london-borough-council/camden'},5,32,1,"LINESTRING (524967.9505712867 185125.90751543432,524969.7479946068 185126.47735232022,524967.9835515312 185131.8058270602,524966.1861282111 185131.16601020584)","LINESTRING (-0.19897458961345488 51.55119355803621,-0.19894847694694012 51.55119828153176,-0.19897202223258967 51.551246560138736,-0.19899815974536408 51.55124120771425)"
disabled (dedicated),at any time,N/A,N/A,N/A,N/A,Laurier Road,NW5 1SG,CA-U,N/A,5,"The information provider and/ or licensor are not liable for any errors or omissions contained within this dataset and shall not be liable for any loss, injury or damage caused by its use.",528667,186121,-0.145288,51.559306,46044711,Defined By Custodian,2019-11-29T23:02:02.000,"{'latitude': '51.559306', 'longitude': '-0.145288', 'human_address': '{""address"": """", ""city"": """", ""state"": """", ""zip"": """"}'}",{'url': 'http://opendatacommunities.org/id/london-borough-council/camden'},10,69,1,"LINESTRING (528669.026578593 186124.32172234045,528670.1808871471 186122.9021286949,528665.2503406086 186119.24317605922,528664.1125221767 186120.74274681153)","LINESTRING (-0.14525840648678431 51.55933516801421,-0.14524228313008536 51.559322147608476,-0.14531470714660613 51.55929038880955,-0.14533056353007523 51.55930412417979)"
disabled (blue badge),at any time,N/A,N/A,N/A,N/A,Somali Road,NW2 3RR,CA-P,N/A,5,"The information provider and/ or licensor are not liable for any errors or omissions contained within this dataset and shall not be liable for any loss, injury or damage caused by its use.",524520,185496,-0.205301,51.554619,46043890,Defined By Custodian,2019-11-29T23:02:00.000,"{'latitude': '51.554619', 'longitude': '-0.205301', 'human_address': '{""address"": """", ""city"": """", ""state"": """", ""zip"": """"}'}",{'url': 'http://opendatacommunities.org/id/london-borough-council/camden'},5,30,1,"LINESTRING (524521.5547182121 185493.50229252392,524522.7337619496 185494.77192909425,524518.7266622544 185499.01071575418,524517.473412967 185497.82105629065)","LINESTRING (-0.20527966166849074 51.55459583648995,-0.20526221523642496 51.55460698705078,-0.20531848543371914 51.554645965833004,-0.2053369733855441 51.55463555040347)"
disabled (blue badge),mon-fri 08:30-18:30,N/A,N/A,N/A,N/A,Manstone Road,NW2 3HD,CA-Q,N/A,5,"The information provider and/ or licensor are not liable for any errors or omissions contained within this dataset and shall not be liable for any loss, injury or damage caused by its use.",524199,185249,-0.210015,51.55247,46043940,Defined By Custodian,2019-11-29T23:02:00.000,"{'latitude': '51.55247', 'longitude': '-0.210015', 'human_address': '{""address"": """", ""city"": """", ""state"": """", ""zip"": """"}'}",{'url': 'http://opendatacommunities.org/id/london-borough-council/camden'},5,31,1,"LINESTRING (524203.49324117607 185250.34189646327,524202.1492962166 185251.8214729389,524197.78765889414 185247.88260042944,524199.1316038536 185246.35303826205)","LINESTRING (-0.2099507230083653 51.55248053048425,-0.20996957558995968 51.55249412347352,-0.21003384079231668 51.552459682877,-0.21001500582475924 51.552445640661155)"
disabled (blue badge),at any time,N/A,N/A,N/A,N/A,Gordon Square,WC1H 0PY,CA-D,N/A,5,"The information provider and/ or licensor are not liable for any errors or omissions contained within this dataset and shall not be liable for any loss, injury or damage caused by its use.",529716,182306,-0.13157,51.524782,46036261,Defined By Custodian,2019-11-29T23:01:56.000,"{'latitude': '51.524782', 'longitude': '-0.13157', 'human_address': '{""address"": """", ""city"": """", ""state"": """", ""zip"": """"}'}",{'url': 'http://opendatacommunities.org/id/london-borough-council/camden'},2,11,1,"LINESTRING (529718.2270938301 182309.67365399157,529719.2082561011 182308.1440918242,529714.5003262124 182304.7350676472,529713.3130374139 182306.2046469845)","LINESTRING (-0.13153682948516354 51.52481357030662,-0.13152325733801626 51.524799599215605,-0.1315923367782913 51.524770042975824,-0.13160890057410748 51.524783522294314)"
disabled (blue badge),at any time,N/A,N/A,N/A,N/A,Priory Road,NW6 3NR,CA-R,CA-R;CA-K,5,"The information provider and/ or licensor are not liable for any errors or omissions contained within this dataset and shall not be liable for any loss, injury or damage caused by its use.",525688,184564,-0.188795,51.545984,46046493,Defined By Custodian,2019-11-29T23:02:06.000,"{'latitude': '51.545984', 'longitude': '-0.188795', 'human_address': '{""address"": """", ""city"": """", ""state"": """", ""zip"": """"}'}",{'url': 'http://opendatacommunities.org/id/london-borough-council/camden'},17,123,1,"LINESTRING (525690.2756391709 184567.6473157542,525688.4699707897 184567.6873043076,525688.4040103009 184561.92895261862,525690.1766984377 184561.89896120358)","LINESTRING (-0.18876138496567213 51.546016121019356,-0.18878739697173116 51.54601688217837,-0.18879040377204226 51.545965145992575,-0.18876486359106928 51.54596448201829)"
disabled (dedicated),at any time,N/A,N/A,N/A,N/A,Belmont Street,NW1 8HJ,CA-F,N/A,4,"The information provider and/ or licensor are not liable for any errors or omissions contained within this dataset and shall not be liable for any loss, injury or damage caused by its use.",528288,184426,-0.15137,51.54416,46045958,Defined By Custodian,2019-11-29T23:02:05.000,"{'latitude': '51.54416', 'longitude': '-0.15137', 'human_address': '{""address"": """", ""city"": """", ""state"": """", ""zip"": """"}'}",{'url': 'http://opendatacommunities.org/id/london-borough-council/camden'},9,63,1,"LINESTRING (528285.6889528196 184424.22836900066,528287.4946212006 184423.99843481864,528288.6324396326 184428.86704119458,528286.7690558238 184429.26692672854)","LINESTRING (-0.15140483097828744 51.5441438421438,-0.1513788900942538 51.54414136576203,-0.15136071711094 51.544184861240446,-0.15138742793688012 51.544188878071616)"
disabled (blue badge),at any time,N/A,N/A,N/A,N/A,Winchester Road,NW3 3NZ,CA-B,N/A,5,"The information provider and/ or licensor are not liable for any errors or omissions contained within this dataset and shall not be liable for any loss, injury or damage caused by its use.",526880,184225,-0.171736,51.542671,46047026,Defined By Custodian,2019-11-29T23:02:08.000,"{'latitude': '51.542671', 'longitude': '-0.171736', 'human_address': '{""address"": """", ""city"": """", ""state"": """", ""zip"": """"}'}",{'url': 'http://opendatacommunities.org/id/london-borough-council/camden'},1,6,1,"LINESTRING (526880.2193474039 184228.6643486192,526878.685766039 184227.86457755129,526881.6704781576 184222.6960570249,526883.418431111 184223.67577658308)","LINESTRING (-0.1717322065122794 51.542703670109574,-0.17175459746128052 51.54269682694798,-0.1717134426276875 51.54264970710211,-0.17168789722214206 51.54265811931346)"
disabled (blue badge),mon-sat 08:30-18:30,N/A,N/A,N/A,N/A,High Holborn,WC2H 9AG,CA-C,N/A,6,"The information provider and/ or licensor are not liable for any errors or omissions contained within this dataset and shall not be liable for any loss, injury or damage caused by its use.",530146,181323,-0.125738,51.515849,46043020,Defined By Custodian,2019-11-29T23:01:58.000,"{'latitude': '51.515849', 'longitude': '-0.125738', 'human_address': '{""address"": """", ""city"": """", ""state"": """", ""zip"": """"}'}",{'url': 'http://opendatacommunities.org/id/london-borough-council/camden'},11,78,1,"LINESTRING (530153.0303909966 181324.4956582594,530152.1399243977 181326.34512885395,530146.7888797431 181323.80585571332,530146.5662630934 181323.69588719148,530147.4402395701 181321.94638798042)","LINESTRING (-0.1256365592462246 51.51586000171051,-0.125648702612143 51.51587682753484,-0.12572671444263006 51.515855239016624,-0.1257299615230499 51.515854301980404,-0.1257180187542604 51.5158383783855)"
disabled (green permit),at any time,N/A,N/A,N/A,N/A,Lincoln's Inn Fields,WC2A 3JW,CA-C,N/A,6,"The information provider and/ or licensor are not liable for any errors or omissions contained within this dataset and shall not be liable for any loss, injury or damage caused by its use.",530672,181352,-0.118151,51.515988,46042388,Defined By Custodian,2019-11-29T23:01:57.000,"{'latitude': '51.515988', 'longitude': '-0.118151', 'human_address': '{""address"": """", ""city"": """", ""state"": """", ""zip"": """"}'}",{'url': 'http://opendatacommunities.org/id/london-borough-council/camden'},11,73,1,"LINESTRING (530671.6942046224 181348.49878743512,530673.8214303865 181349.45851271664,530671.2077460175 181354.81697887165,530669.0392949479 181353.8072678984)","LINESTRING (-0.1181570333766274 51.51595610504627,-0.11812603803506638 51.51596423842124,-0.11816169890239916 51.51601299776199,-0.1181933065865743 51.516004424690905)"
disabled (blue badge),at any time,N/A,N/A,N/A,N/A,Belsize Avenue,NW3 4BN,CA-B,N/A,5,"The information provider and/ or licensor are not liable for any errors or omissions contained within this dataset and shall not be liable for any loss, injury or damage caused by its use.",527101,185076,-0.168244,51.55027,46047264,Defined By Custodian,2019-11-29T23:02:08.000,"{'latitude': '51.55027', 'longitude': '-0.168244', 'human_address': '{""address"": """", ""city"": """", ""state"": """", ""zip"": """"}'}",{'url': 'http://opendatacommunities.org/id/london-borough-council/camden'},1,7,1,"LINESTRING (527101.7888743737 185079.940673306,527103.1822896998 185078.651042459,527099.1174745769 185074.3022872772,527097.6086283954 185075.66189809266)","LINESTRING (-0.16823150436791953 51.55030428304635,-0.16821188418058483 51.55029237964881,-0.16827204819670852 51.55025421203406,-0.16829330702416287 51.55026677035215)"
disabled (blue badge),at any time,N/A,N/A,N/A,N/A,Harmood Street,NW1 8DY,CA-F,N/A,19,"The information provider and/ or licensor are not liable for any errors or omissions contained within this dataset and shall not be liable for any loss, injury or damage caused by its use.",528559,184512,-0.147433,51.544871,46045940,Defined By Custodian,2019-11-29T23:02:05.000,"{'latitude': '51.544871', 'longitude': '-0.147433', 'human_address': '{""address"": """", ""city"": """", ""state"": """", ""zip"": """"}'}",{'url': 'http://opendatacommunities.org/id/london-borough-council/camden'},9,63,3,"LINESTRING (528559.2683252151 184505.05523255165,528560.9503176798 184505.3751409788,528559.4662066816 184512.6730519735,528556.6381507239 184525.07950066452,528554.9066878926 184524.85956362085)","LINESTRING (-0.14743229230575564 51.54480804384432,-0.1474079330410424 51.54481053611278,-0.14742665865466714 51.54487645950186,-0.14746288925082504 51.54498859866899,-0.14748792512239445 51.54498701607985)"
disabled (blue badge),at any time,N/A,N/A,N/A,N/A,Linstead Street,NW6 2RE,CA-Q,N/A,6,"The information provider and/ or licensor are not liable for any errors or omissions contained within this dataset and shall not be liable for any loss, injury or damage caused by its use.",525137,184533,-0.196748,51.545828,46044319,Defined By Custodian,2019-11-29T23:02:01.000,"{'latitude': '51.545828', 'longitude': '-0.196748', 'human_address': '{""address"": """", ""city"": """", ""state"": """", ""zip"": """"}'}",{'url': 'http://opendatacommunities.org/id/london-borough-council/camden'},18,132,1,"LINESTRING (525140.4454945829 184535.99637574155,525138.4996601631 184536.46624124394,525136.949588676 184530.09806411568,525138.8624428515 184529.59820719823)","LINESTRING (-0.19669772790167425 51.54585374529773,-0.19672560747754986 51.5458583991132,-0.19675021354718594 51.54580151079423,-0.19672282003080802 51.54579659475408)"
disabled (blue badge),at any time,N/A,N/A,N/A,N/A,Percy Street,W1T 1DS,CA-E,N/A,1017,"The information provider and/ or licensor are not liable for any errors or omissions contained within this dataset and shall not be liable for any loss, injury or damage caused by its use.",0,0,-0.132881,51.51837,46129456,Defined By Custodian,2019-11-29T23:02:14.000,"{'latitude': '51.51837', 'longitude': '-0.132881', 'human_address': '{""address"": """", ""city"": """", ""state"": """", ""zip"": """"}'}",{'url': 'http://opendatacommunities.org/id/london-borough-council/camden'},2,9,1,,
disabled (blue badge),at any time,N/A,N/A,N/A,N/A,Oseney Crescent,NW5 2AT,CA-M,N/A,5,"The information provider and/ or licensor are not liable for any errors or omissions contained within this dataset and shall not be liable for any loss, injury or damage caused by its use.",529458,184835,-0.134357,51.547568,46048383,Defined By Custodian,2019-11-29T23:02:11.000,"{'latitude': '51.547568', 'longitude': '-0.134357', 'human_address': '{""address"": """", ""city"": """", ""state"": """", ""zip"": """"}'}",{'url': 'http://opendatacommunities.org/id/london-borough-council/camden'},4,29,1,"LINESTRING (529461.5336065696 184834.7108696071,529461.1708238812 184836.47036595654,529455.2591150716 184835.4006721532,529455.4817317214 184833.6411758038)","LINESTRING (-0.1343068429687733 51.54756459037799,-0.1343114248899931 51.5475804858605,-0.13439702801442946 51.547572227538794,-0.13439446637723718 51.5475563641819)"
disabled (blue badge),at any time,N/A,N/A,N/A,N/A,Belsize Park Gardens,NW3 4NA,CA-B,N/A,5,"The information provider and/ or licensor are not liable for any errors or omissions contained within this dataset and shall not be liable for any loss, injury or damage caused by its use.",527188,184774,-0.167099,51.547536,46047042,Defined By Custodian,2019-11-29T23:02:08.000,"{'latitude': '51.547536', 'longitude': '-0.167099', 'human_address': '{""address"": """", ""city"": """", ""state"": """", ""zip"": """"}'}",{'url': 'http://opendatacommunities.org/id/london-borough-council/camden'},1,1,1,"LINESTRING (527190.5881824325 184771.9388379143,527191.437423726 184773.74831995543,527186.1193593157 184776.0676560524,527185.3360785111 184774.2081883195)","LINESTRING (-0.16706276504862377 51.547516289736166,-0.1670498703480832 51.54753236033882,-0.16712568682924892 51.54755440140559,-0.1671376488159923 51.54753786672493)"
disabled (blue badge),at any time,N/A,N/A,N/A,N/A,Parkhill Road,NW3 2YT,CA-B,N/A,5,"The information provider and/ or licensor are not liable for any errors or omissions contained within this dataset and shall not be liable for any loss, injury or damage caused by its use.",527746,185172,-0.158911,51.550987,46046024,Defined By Custodian,2019-11-29T23:02:05.000,"{'latitude': '51.550987', 'longitude': '-0.158911', 'human_address': '{""address"": """", ""city"": """", ""state"": """", ""zip"": """"}'}",{'url': 'http://opendatacommunities.org/id/london-borough-council/camden'},7,51,1,"LINESTRING (527747.2369925511 185175.753247242,527745.7281463696 185175.09343611097,527747.9378227447 185169.53502718898,527749.4219337428 185170.2148325967)","LINESTRING (-0.15889273215421046 51.551019754316386,-0.15891472160634876 51.55101416588317,-0.1588848860130643 51.550963713571704,-0.15886324588474499 51.55096948727853)"
disabled (blue badge),at any time,N/A,N/A,N/A,N/A,Belsize Road,NW6 4AJ,CA-K,N/A,6,"The information provider and/ or licensor are not liable for any errors or omissions contained within this dataset and shall not be liable for any loss, injury or damage caused by its use.",525979,183949,-0.184821,51.540392,46043546,Defined By Custodian,2019-11-29T23:01:59.000,"{'latitude': '51.540392', 'longitude': '-0.184821', 'human_address': '{""address"": """", ""city"": """", ""state"": """", ""zip"": """"}'}",{'url': 'http://opendatacommunities.org/id/london-borough-council/camden'},13,94,1,"LINESTRING (525983.1814347875 183948.92442333986,525982.571300266 183950.60394258247,525976.4699550511 183948.39457500738,525977.2037654892 183946.665070073)","LINESTRING (-0.1847609534747755 51.540390361328626,-0.18476914574187878 51.54040559133319,-0.18485786818443126 51.540387095925105,-0.18484791137102524 51.54037138912734)"
disabled (blue badge),at any time,N/A,N/A,N/A,N/A,Montpelier Grove,NW5 2XG,CA-M,N/A,5,"The information provider and/ or licensor are not liable for any errors or omissions contained within this dataset and shall not be liable for any loss, injury or damage caused by its use.",529364,185496,-0.135469,51.55353,46045230,Defined By Custodian,2019-11-29T23:02:03.000,"{'latitude': '51.55353', 'longitude': '-0.135469', 'human_address': '{""address"": """", ""city"": """", ""state"": """", ""zip"": """"}'}",{'url': 'http://opendatacommunities.org/id/london-borough-council/camden'},12,83,1,"LINESTRING (529366.9215304345 185498.8307672639,529365.0416565035 185499.11068713767,529364.4562571652 185493.4523068322,529366.1052693855 185493.1923812351)","LINESTRING (-0.13542645733486475 51.553554601795476,-0.1354534540187456 51.553557547895544,-0.13546397279570274 51.55350683115607,-0.13544029680622494 51.55350411761303)"
disabled (blue badge),at any time,N/A,N/A,N/A,N/A,Holly Bush Vale,NW3 6TX,CA-H,N/A,1,"The information provider and/ or licensor are not liable for any errors or omissions contained within this dataset and shall not be liable for any loss, injury or damage caused by its use.",526346,185746,-0.178887,51.55646,46035713,Defined By Custodian,2019-11-29T23:01:55.000,"{'latitude': '51.55646', 'longitude': '-0.178887', 'human_address': '{""address"": """", ""city"": """", ""state"": """", ""zip"": """"}'}",{'url': 'http://opendatacommunities.org/id/london-borough-council/camden'},6,38,1,"LINESTRING (526347.3822737453 185746.76979545533,526346.063063969 185746.08999004762,526346.1125343357 185746.03000721752,526347.7120761892 185743.44074838515,526348.9405902934 185744.00058813268)","LINESTRING (-0.17886694263674338 51.55646630905706,-0.1788862055891307 51.55646049486719,-0.17888551390399351 51.55645994473408,-0.17886338263541357 51.55643631724221,-0.1788454702993978 51.556441073596865)"
disabled (blue badge),"mon-fri 09:00-18:30, sat 09:30-13:30",N/A,N/A,N/A,N/A,Eton Avenue,NW3 3NJ,CA-B,N/A,7,"The information provider and/ or licensor are not liable for any errors or omissions contained within this dataset and shall not be liable for any loss, injury or damage caused by its use.",526745,184376,-0.173628,51.544059,46046958,Defined By Custodian,2019-11-29T23:02:07.000,"{'latitude': '51.544059', 'longitude': '-0.173628', 'human_address': '{""address"": """", ""city"": """", ""state"": """", ""zip"": """"}'}",{'url': 'http://opendatacommunities.org/id/london-borough-council/camden'},17,122,1,"LINESTRING (526750.1782437173 184376.2221106492,526749.6588048679 184378.09157552043,526741.9744079217 184375.93219363707,526742.4361313434 184374.2026887027)","LINESTRING (-0.17355331025466103 51.54405896341286,-0.17356012391078274 51.54407588087062,-0.17367165613816787 51.544058198390175,-0.17366562391168525 51.54404255170922)"
disabled (blue badge),at any time,N/A,N/A,N/A,N/A,Ulysses Road,NW6 1ED,CA-P,N/A,5,"The information provider and/ or licensor are not liable for any errors or omissions contained within this dataset and shall not be liable for any loss, injury or damage caused by its use.",524999,185428,-0.198419,51.553902,46043876,Defined By Custodian,2019-11-29T23:02:00.000,"{'latitude': '51.553902', 'longitude': '-0.198419', 'human_address': '{""address"": """", ""city"": """", ""state"": """", ""zip"": """"}'}",{'url': 'http://opendatacommunities.org/id/london-borough-council/camden'},5,32,1,"LINESTRING (525002.876650111 185429.46062426077,525001.5986656403 185430.70026941603,524997.5008702731 185426.59144555463,524998.8695504159 185425.31181184598)","LINESTRING (-0.1983634150291873 51.553913922489365,-0.19838139896254123 51.553925346389214,-0.19844193186362097 51.55388932682403,-0.19842265462345107 51.55387752346784)"
disabled (blue badge),at any time,N/A,N/A,N/A,N/A,Haverstock Hill,NW3 4QR,CA-B,N/A,19,"The information provider and/ or licensor are not liable for any errors or omissions contained within this dataset and shall not be liable for any loss, injury or damage caused by its use.",527281,185155,-0.165621,51.550939,46047130,Defined By Custodian,2019-11-29T23:02:08.000,"{'latitude': '51.550939', 'longitude': '-0.165621', 'human_address': '{""address"": """", ""city"": """", ""state"": """", ""zip"": """"}'}",{'url': 'http://opendatacommunities.org/id/london-borough-council/camden'},1,8,2,"LINESTRING (527286.0412547999 185147.4013628845,527287.5583460425 185148.73098228488,527287.4016898816 185148.90093363682,527283.7079025083 185152.7998175929,527279.4122256746 185157.3385184033,527275.8750944623 185161.0774481458,527273.7066433927 185163.13685864568,527272.3956786776 185161.82723352197)","LINESTRING (-0.16555114484455274 51.550869062079464,-0.1655287952606757 51.5508806693775,-0.16553099202192148 51.55088223200597,-0.16558282856828166 51.55091810304059,-0.16564311016978148 51.550959859612256,-0.16569274650957902 51.550994257813805,-0.16572326042144034 51.5510132540151,-0.165742631468438 51.55100177992807)"
disabled (blue badge),at any time,N/A,N/A,N/A,N/A,Greencroft Gardens,NW6 3LU,CA-R,CA-R;CA-K,6,"The information provider and/ or licensor are not liable for any errors or omissions contained within this dataset and shall not be liable for any loss, injury or damage caused by its use.",526180,184422,-0.181754,51.544599,46046954,Defined By Custodian,2019-11-29T23:02:07.000,"{'latitude': '51.544599', 'longitude': '-0.181754', 'human_address': '{""address"": """", ""city"": """", ""state"": """", ""zip"": """"}'}",{'url': 'http://opendatacommunities.org/id/london-borough-council/camden'},17,121,1,"LINESTRING (526177.0722916409 184421.06927328242,526178.5234223946 184419.68966819026,526178.8779600221 184420.0395680325,526183.0417158781 184424.18838044727,526183.2395973445 184424.44830604436,526181.730751163 184425.81791399815)","LINESTRING (-0.1817974174670254 51.54459029312798,-0.18177699651370194 51.54457757043617,-0.18177176109112086 51.544580635824865,-0.18171026109650415 51.544616991502636,-0.18170731582950653 51.544619283273285,-0.181728572228512 51.54463192902281)"
disabled (blue badge),at any time,N/A,N/A,N/A,N/A,Gladys Road,NW6 2PX,CA-Q,N/A,6,"The information provider and/ or licensor are not liable for any errors or omissions contained within this dataset and shall not be liable for any loss, injury or damage caused by its use.",525324,184478,-0.194072,51.545292,46044326,Defined By Custodian,2019-11-29T23:02:01.000,"{'latitude': '51.545292', 'longitude': '-0.194072', 'human_address': '{""address"": """", ""city"": """", ""state"": """", ""zip"": """"}'}",{'url': 'http://opendatacommunities.org/id/london-borough-council/camden'},18,127,1,"LINESTRING (525326.396357596 184481.35201752637,525324.4010528096 184481.67192595353,525323.708467677 184475.74362291262,525325.7532428302 184475.4936944539)","LINESTRING (-0.19403695174537752 51.54532142424187,-0.1940655971390927 51.54532474197454,-0.1940776902487567 51.54527161721539,-0.1940483069338599 51.5452689174295)"
disabled (blue badge),at any time,N/A,N/A,N/A,N/A,Guilford Street,WC1N 1DZ,CA-D,N/A,11,"The information provider and/ or licensor are not liable for any errors or omissions contained within this dataset and shall not be liable for any loss, injury or damage caused by its use.",530597,182208,-0.118914,51.523698,46043287,Defined By Custodian,2019-11-29T23:01:59.000,"{'latitude': '51.523698', 'longitude': '-0.118914', 'human_address': '{""address"": """", ""city"": """", ""state"": """", ""zip"": """"}'}",{'url': 'http://opendatacommunities.org/id/london-borough-council/camden'},14,96,1,"LINESTRING (530602.3779759455 182215.01075096568,530604.1259288989 182211.55174109698,530597.1341170851 182208.72255094422,530596.6723936636 182208.52260817724,530595.0728518099 182212.0915865678)","LINESTRING (-0.11883445848488013 51.523759297681266,-0.1188105589636412 51.52372780843837,-0.11891233160322152 51.52370399815214,-0.11891905729122419 51.52370230795945,-0.11894077811304596 51.523734751165485)"
disabled (blue badge),at any time,N/A,N/A,N/A,N/A,Lady Somerset Road,NW5 1TY,CA-M,N/A,6,"The information provider and/ or licensor are not liable for any errors or omissions contained within this dataset and shall not be liable for any loss, injury or damage caused by its use.",528756,185570,-0.144207,51.554334,46045208,Defined By Custodian,2019-11-29T23:02:03.000,"{'latitude': '51.554334', 'longitude': '-0.144207', 'human_address': '{""address"": """", ""city"": """", ""state"": """", ""zip"": """"}'}",{'url': 'http://opendatacommunities.org/id/london-borough-council/camden'},12,87,1,"LINESTRING (528759.7469858883 185575.1089328661,528760.8435790148 185573.529385007,528756.1026688816 185570.28031504358,528755.4925343601 185569.82044667954,528754.338225806 185571.37000312362)","LINESTRING (-0.1441513929810637 51.55437882455773,-0.14413616241493712 51.55436437948013,-0.1442056958594107 51.55433626128039,-0.1442146597706095 51.55433226759244,-0.14423073334685724 51.55434645628723)"
disabled (blue badge),at any time,N/A,N/A,N/A,N/A,Ospringe Road,NW5 2JA,CA-M,N/A,5,"The information provider and/ or licensor are not liable for any errors or omissions contained within this dataset and shall not be liable for any loss, injury or damage caused by its use.",529113,185550,-0.139068,51.554073,46045191,Defined By Custodian,2019-11-29T23:02:03.000,"{'latitude': '51.554073', 'longitude': '-0.139068', 'human_address': '{""address"": """", ""city"": """", ""state"": """", ""zip"": """"}'}",{'url': 'http://opendatacommunities.org/id/london-borough-council/camden'},12,82,1,"LINESTRING (529110.4589048848 185552.71534296454,529110.1043672574 185550.87586950834,529116.024321128 185549.72619859822,529116.3293883888 185551.63565202287)","LINESTRING (-0.1391037675360791 51.55409752767431,-0.13910955331236668 51.55408107769498,-0.139024634029169 51.55406939272219,-0.13901953570647946 51.55408648290222)"
disabled (blue badge),at any time,N/A,N/A,N/A,N/A,Priory Road,NW6 3NG,CA-R,CA-R;CA-K,5,"The information provider and/ or licensor are not liable for any errors or omissions contained within this dataset and shall not be liable for any loss, injury or damage caused by its use.",525644,184052,-0.189612,51.541393,46046945,Defined By Custodian,2019-11-29T23:02:07.000,"{'latitude': '51.541393', 'longitude': '-0.189612', 'human_address': '{""address"": """", ""city"": """", ""state"": """", ""zip"": """"}'}",{'url': 'http://opendatacommunities.org/id/london-borough-council/camden'},17,124,1,"LINESTRING (525643.7240241941 184056.03376361012,525645.4637320864 184055.5339066927,525644.9278031148 184053.72442465153,525644.1362772491 184050.74527742356,525643.9796210881 184050.10546056923,525642.2646483792 184050.54533465658)","LINESTRING (-0.1896149533071007 51.541428553705344,-0.18959005863668588 51.5414236745495,-0.18959842829627674 51.54140753173799,-0.18961089907058803 51.54138093386885,-0.18961338515503626 51.54137521860885,-0.18963794471841353 51.54137955318703)"
disabled (blue badge),at any time,N/A,N/A,N/A,N/A,Phoenix Road,NW1 1EN,CA-G,N/A,15,"The information provider and/ or licensor are not liable for any errors or omissions contained within this dataset and shall not be liable for any loss, injury or damage caused by its use.",529758,183029,-0.130698,51.531269,46049555,Defined By Custodian,2019-11-29T23:02:13.000,"{'latitude': '51.531269', 'longitude': '-0.130698', 'human_address': '{""address"": """", ""city"": """", ""state"": """", ""zip"": """"}'}",{'url': 'http://opendatacommunities.org/id/london-borough-council/camden'},16,112,2,"MULTILINESTRING ((529763.7315860471 183033.70640177338,529758.182659926 183029.97746916924,529759.3534586024 183028.40791844847),(529764.8529143569 183032.09686249922,529763.7315860471 183033.70640177338),(529770.3193898669 183035.66584088976,529769.2392868627 183037.39534582413,529763.7315860471 183033.70640177338))","MULTILINESTRING ((-0.1306146587524518 51.53130990790514,-0.13069598398492271 51.53127767032581,-0.1306796925331556 51.53126329624164),(-0.13059909483876952 51.53129518579509,-0.1306146587524518 51.53130990790514),(-0.130519016415055 51.53132600475039,-0.13053394213103142 51.531341795520646,-0.1306146587524518 51.53130990790514))"
disabled (dedicated),at any time,N/A,N/A,N/A,N/A,Howitt Road,NW3 4QS,CA-B,N/A,925,"The information provider and/ or licensor are not liable for any errors or omissions contained within this dataset and shall not be liable for any loss, injury or damage caused by its use.",0,0,-0.164943,51.550125,46127411,Defined By Custodian,2019-11-29T23:02:13.000,"{'latitude': '51.550125', 'longitude': '-0.164943', 'human_address': '{""address"": """", ""city"": """", ""state"": """", ""zip"": """"}'}",{'url': 'http://opendatacommunities.org/id/london-borough-council/camden'},1,8,1,,
disabled (blue badge),at any time,N/A,N/A,N/A,N/A,Maygrove Road,NW6 2RA,CA-Q,N/A,5,"The information provider and/ or licensor are not liable for any errors or omissions contained within this dataset and shall not be liable for any loss, injury or damage caused by its use.",525223,184750,-0.195431,51.547759,46044285,Defined By Custodian,2019-11-29T23:02:01.000,"{'latitude': '51.547759', 'longitude': '-0.195431', 'human_address': '{""address"": """", ""city"": """", ""state"": """", ""zip"": """"}'}",{'url': 'http://opendatacommunities.org/id/london-borough-council/camden'},18,132,1,"LINESTRING (525226.0457189345 184748.7654712215,525226.2848257064 184750.63493609274,525220.62046873 184751.31474150048,525220.373116897 184749.5052594593)","LINESTRING (-0.1953882192847154 51.54774695935741,-0.195384107608524 51.547763707471454,-0.19546551326710118 51.54777107275686,-0.19546972242065758 51.547754865541044)"
disabled (blue badge),at any time,N/A,N/A,N/A,N/A,Oseney Crescent,NW5 2AT,CA-M,N/A,5,"The information provider and/ or licensor are not liable for any errors or omissions contained within this dataset and shall not be liable for any loss, injury or damage caused by its use.",529464,184837,-0.13427,51.547585,46048403,Defined By Custodian,2019-11-29T23:02:11.000,"{'latitude': '51.547585', 'longitude': '-0.13427', 'human_address': '{""address"": """", ""city"": """", ""state"": """", ""zip"": """"}'}",{'url': 'http://opendatacommunities.org/id/london-borough-council/camden'},4,29,1,"LINESTRING (529467.5030308068 184836.41038312644,529466.9918370185 184838.00992526227,529461.2285393089 184836.47036595654,529461.6160571806 184834.80084385225)","LINESTRING (-0.13422017629755487 51.54757849550301,-0.13422695617872804 51.54759298751876,-0.13431059299597134 51.54758047263282,-0.1343056214574356 51.54756538006667)"
disabled (blue badge),at any time,3 hours,N/A,N/A,N/A,Millman Street,WC1N 1DX,CA-D,N/A,2333,"The information provider and/ or licensor are not liable for any errors or omissions contained within this dataset and shall not be liable for any loss, injury or damage caused by its use.",0,0,-0.117944,51.523734,46129552,Defined By Custodian,2019-11-29T23:02:14.000,"{'latitude': '51.523734', 'longitude': '-0.117944', 'human_address': '{""address"": """", ""city"": """", ""state"": """", ""zip"": """"}'}",{'url': 'http://opendatacommunities.org/id/london-borough-council/camden'},11,79,3,,
disabled (blue badge),at any time,N/A,N/A,N/A,N/A,Greencroft Gardens,NW6 3JQ,CA-R,CA-R;CA-K,5,"The information provider and/ or licensor are not liable for any errors or omissions contained within this dataset and shall not be liable for any loss, injury or damage caused by its use.",526042,184302,-0.183786,51.543551,46046720,Defined By Custodian,2019-11-29T23:02:07.000,"{'latitude': '51.543551', 'longitude': '-0.183786', 'human_address': '{""address"": """", ""city"": """", ""state"": """", ""zip"": """"}'}",{'url': 'http://opendatacommunities.org/id/london-borough-council/camden'},17,121,1,"LINESTRING (526039.3715261915 184302.3832468041,526040.2949730348 184300.94365888185,526045.2914800621 184304.2227202603,526044.3680332187 184305.66230818254)","LINESTRING (-0.1838246166938615 51.54355439026776,-0.1838118225410792 51.54354124657583,-0.1837386345517854 51.54356960105849,-0.18375142869125694 51.54358274475822)"
disabled (blue badge),at any time,N/A,N/A,N/A,N/A,King Henry's Road,NW3 3SL,CA-J,N/A,5,"The information provider and/ or licensor are not liable for any errors or omissions contained within this dataset and shall not be liable for any loss, injury or damage caused by its use.",527242,184158,-0.166543,51.541988,46046643,Defined By Custodian,2019-11-29T23:02:06.000,"{'latitude': '51.541988', 'longitude': '-0.166543', 'human_address': '{""address"": """", ""city"": """", ""state"": """", ""zip"": """"}'}",{'url': 'http://opendatacommunities.org/id/london-borough-council/camden'},17,126,1,"LINESTRING (527245.75588626 184157.95458907733,527245.4425739382 184159.5441340748,527239.0361614625 184158.40446030302,527239.31649354 184156.73493819876)","LINESTRING (-0.16648947350779444 51.54198599800733,-0.16649341454356803 51.54200035380926,-0.16658615701268817 51.54199155418378,-0.16658272017044057 51.54197648705679)"
disabled (blue badge),at any time,N/A,N/A,N/A,N/A,Lamble Street,NW5 4AB,CA-L,N/A,4,"The information provider and/ or licensor are not liable for any errors or omissions contained within this dataset and shall not be liable for any loss, injury or damage caused by its use.",528207,185490,-0.15215,51.55374,46046384,Defined By Custodian,2019-11-29T23:02:06.000,"{'latitude': '51.55374', 'longitude': '-0.15215', 'human_address': '{""address"": """", ""city"": """", ""state"": """", ""zip"": """"}'}",{'url': 'http://opendatacommunities.org/id/london-borough-council/camden'},7,48,1,"LINESTRING (528210.5599560663 185490.21323400713,528209.7519400783 185491.54285340753,528204.8213935399 185488.53371476452,528205.728350261 185487.21409250246)","LINESTRING (-0.1520994105304826 51.55374079412544,-0.15211057443224968 51.553752926590796,-0.15218274845804486 51.5537270029676,-0.15217015458885558 51.553714937896785)"
disabled (blue badge),at any time,N/A,N/A,N/A,N/A,Whitfield Street,W1T 5HA,CA-E,N/A,5,"The information provider and/ or licensor are not liable for any errors or omissions contained within this dataset and shall not be liable for any loss, injury or damage caused by its use.",529300,182065,-0.137651,51.522711,46035924,Defined By Custodian,2019-11-29T23:01:55.000,"{'latitude': '51.522711', 'longitude': '-0.137651', 'human_address': '{""address"": """", ""city"": """", ""state"": """", ""zip"": """"}'}",{'url': 'http://opendatacommunities.org/id/london-borough-council/camden'},2,13,1,"LINESTRING (529300.2024960044 182068.8825797196,529298.7266300672 182068.07281151332,529302.5523384182 182062.7143453583,529303.8138327666 182063.6540763631)","LINESTRING (-0.13764745817606416 51.52274536607576,-0.1376690164360394 51.52273842629274,-0.13761586927715827 51.522689395427165,-0.13759735157430253 51.52269755218843)"
disabled (blue badge),at any time,N/A,N/A,N/A,N/A,King Henry's Road,NW3 3QU,CA-J,N/A,5,"The information provider and/ or licensor are not liable for any errors or omissions contained within this dataset and shall not be liable for any loss, injury or damage caused by its use.",527655,184221,-0.160568,51.542461,46047835,Defined By Custodian,2019-11-29T23:02:10.000,"{'latitude': '51.542461', 'longitude': '-0.160568', 'human_address': '{""address"": """", ""city"": """", ""state"": """", ""zip"": """"}'}",{'url': 'http://opendatacommunities.org/id/london-borough-council/camden'},3,16,1,"LINESTRING (527659.1385146858 184220.27674954446,527658.8746727306 184222.11622300066,527652.7568373936 184221.42642045458,527652.9876991044 184219.53696130664)","LINESTRING (-0.16050913735981098 51.54245284441631,-0.16051227307835864 51.54246943531495,-0.1606006953126466 51.542464618223406,-0.16059805300377103 51.54244758555787)"
disabled (dedicated),at any time,N/A,N/A,N/A,N/A,Savernake Road,NW3 2JR,CA-B,N/A,6,"The information provider and/ or licensor are not liable for any errors or omissions contained within this dataset and shall not be liable for any loss, injury or damage caused by its use.",528066,185695,-0.154108,51.555614,46046049,Defined By Custodian,2019-11-29T23:02:05.000,"{'latitude': '51.555614', 'longitude': '-0.154108', 'human_address': '{""address"": """", ""city"": """", ""state"": """", ""zip"": """"}'}",{'url': 'http://opendatacommunities.org/id/london-borough-council/camden'},7,45,1,"LINESTRING (528062.4456784461 185698.7335456888,528061.942729719 185697.23397493645,528069.0334822659 185695.12457874484,528069.528185932 185696.75411229572)","LINESTRING (-0.15415873343081662 51.55564833041611,-0.15416652982208717 51.555634968033395,-0.15406507383846904 51.55561440366234,-0.154057348993107 51.55562893586281)"
disabled (dedicated),at any time,N/A,N/A,N/A,N/A,Grafton Mews,W1T 5JA,CA-E,N/A,5,"The information provider and/ or licensor are not liable for any errors or omissions contained within this dataset and shall not be liable for any loss, injury or damage caused by its use.",529185,182165,-0.139271,51.523636,46035832,Defined By Custodian,2019-11-29T23:01:55.000,"{'latitude': '51.523636', 'longitude': '-0.139271', 'human_address': '{""address"": """", ""city"": """", ""state"": """", ""zip"": """"}'}",{'url': 'http://opendatacommunities.org/id/london-borough-council/camden'},2,13,1,"LINESTRING (529184.9447868721 182162.6057517407,529186.5031034201 182163.70543695905,529183.5183913016 182168.07418641754,529181.918849448 182166.90452123072)","LINESTRING (-0.13927350228167204 51.52361399326254,-0.13925064977661375 51.523623519953816,-0.13929204694318165 51.523663463435014,-0.13931551900990016 51.5236533172525)"
disabled (blue badge),at any time,N/A,N/A,N/A,N/A,Huntley Street,WC1E 6AG,CA-E,N/A,12,"The information provider and/ or licensor are not liable for any errors or omissions contained within this dataset and shall not be liable for any loss, injury or damage caused by its use.",529475,182139,-0.135103,51.523336,46036002,Defined By Custodian,2019-11-29T23:01:55.000,"{'latitude': '51.523336', 'longitude': '-0.135103', 'human_address': '{""address"": """", ""city"": """", ""state"": """", ""zip"": """"}'}",{'url': 'http://opendatacommunities.org/id/london-borough-council/camden'},2,13,2,"LINESTRING (529469.9435688927 182143.80113450636,529471.4689051964 182144.86083117136,529479.1120768371 182134.13390172296,529477.471309678 182133.0542107813)","LINESTRING (-0.1351746646196469 51.523379806504806,-0.1351523012033852 51.52338898057666,-0.13504613344350785 51.52329082860034,-0.13507016708209968 51.52328150129699)"
disabled (blue badge),at any time,N/A,N/A,N/A,N/A,Ossulston Street,NW1 1JJ,CA-G,N/A,19,"The information provider and/ or licensor are not liable for any errors or omissions contained within this dataset and shall not be liable for any loss, injury or damage caused by its use.",529934,182822,-0.128239,51.529369,46049558,Defined By Custodian,2019-11-29T23:02:13.000,"{'latitude': '51.529369', 'longitude': '-0.128239', 'human_address': '{""address"": """", ""city"": """", ""state"": """", ""zip"": """"}'}",{'url': 'http://opendatacommunities.org/id/london-borough-council/camden'},16,115,2,"MULTILINESTRING ((529938.1888338852 182817.41831359462,529934.8330940171 182822.41688276906,529936.5810469706 182823.62653650928),(529939.961522022 182818.63796447316,529938.1888338852 182817.41831359462),(529941.4868583257 182812.4897243886,529938.1888338852 182817.41831359462),(529941.4868583257 182812.4897243886,529941.3137120426 182812.69966429393,529938.4526758405 182817.01842806066),(529943.3172618902 182813.63939529873,529941.4868583257 182812.4897243886))","MULTILINESTRING ((-0.12818074776671456 51.52932608422061,-0.12822725373845487 51.52937177694761,-0.12820162333406068 51.52938224614517),(-0.1281547573093684 51.52933663756516,-0.12818074776671456 51.52932608422061),(-0.12813504763879846 51.52928103364113,-0.12818074776671456 51.52932608422061),(-0.12813504763879846 51.52928103364113,-0.12813746489274347 51.52928296013969,-0.12817709381759598 51.52932242986296),(-0.12810825144601476 51.52929094480928,-0.12813504763879846 51.52928103364113))"
disabled (blue badge),at any time,N/A,N/A,N/A,N/A,Stedham Place,WC1A 1HU,CA-C,N/A,5,"The information provider and/ or licensor are not liable for any errors or omissions contained within this dataset and shall not be liable for any loss, injury or damage caused by its use.",530095,181474,-0.126417,51.517217,46042369,Defined By Custodian,2019-11-29T23:01:57.000,"{'latitude': '51.517217', 'longitude': '-0.126417', 'human_address': '{""address"": """", ""city"": """", ""state"": """", ""zip"": """"}'}",{'url': 'http://opendatacommunities.org/id/london-borough-council/camden'},11,77,1,"LINESTRING (530095.5458249998 181477.81177197836,530093.7071763743 181476.80206100512,530096.5022520875 181471.95344890587,530098.3491457741 181473.05313412426)","LINESTRING (-0.12640798327109015 51.517251055773706,-0.1264348398858072 51.517242404643596,-0.12639636824730074 51.51719818785366,-0.12636935969213223 51.51720764566352)"
disabled (blue badge),at any time,N/A,N/A,N/A,N/A,Belsize Park Gardens,NW3 4NJ,CA-B,N/A,4,"The information provider and/ or licensor are not liable for any errors or omissions contained within this dataset and shall not be liable for any loss, injury or damage caused by its use.",527413,184653,-0.163899,51.546398,46047059,Defined By Custodian,2019-11-29T23:02:08.000,"{'latitude': '51.546398', 'longitude': '-0.163899', 'human_address': '{""address"": """", ""city"": """", ""state"": """", ""zip"": """"}'}",{'url': 'http://opendatacommunities.org/id/london-borough-council/camden'},1,2,1,"LINESTRING (527413.3779784454 184657.17168966873,527411.8196618973 184655.8720616834,527414.9527851157 184651.95318345062,527416.3791806861 184653.19282860588)","LINESTRING (-0.16389302186914517 51.54643468027811,-0.16391595315750038 51.546423351974774,-0.1638722118851748 51.5463874265444,-0.16385120376755632 51.54639824552592)"
disabled (blue badge),at any time,N/A,N/A,N/A,N/A,Frognal Lane,NW3 7DX,CA-H,N/A,6,"The information provider and/ or licensor are not liable for any errors or omissions contained within this dataset and shall not be liable for any loss, injury or damage caused by its use.",525744,185375,-0.187698,51.55326,46035468,Defined By Custodian,2019-11-29T23:01:54.000,"{'latitude': '51.55326', 'longitude': '-0.187698', 'human_address': '{""address"": """", ""city"": """", ""state"": """", ""zip"": """"}'}",{'url': 'http://opendatacommunities.org/id/london-borough-council/camden'},6,37,1,"LINESTRING (525748.2301736504 185375.04620022763,525747.455137907 185376.72571947024,525741.3537926922 185374.17644919126,525742.16180868 185372.39695856516)","LINESTRING (-0.1876376645056027 51.55325937808565,-0.18764823774666084 51.5532746446286,-0.18773710483479125 51.55325309301129,-0.18772609181737107 51.553236920681705)"
disabled (blue badge),at any time,N/A,N/A,N/A,N/A,Murray Street,NW1 9RF,CA-N,N/A,6,"The information provider and/ or licensor are not liable for any errors or omissions contained within this dataset and shall not be liable for any loss, injury or damage caused by its use.",529475,184503,-0.134234,51.544581,46048529,Defined By Custodian,2019-11-29T23:02:11.000,"{'latitude': '51.544581', 'longitude': '-0.134234', 'human_address': '{""address"": """", ""city"": """", ""state"": """", ""zip"": """"}'}",{'url': 'http://opendatacommunities.org/id/london-borough-council/camden'},4,24,1,"LINESTRING (529474.3959018873 184506.69476324087,529473.06844705 184505.1452067968,529477.9412781608 184501.0163886587,529479.3182033646 184502.50596227267)","LINESTRING (-0.13424209252230154 51.54461380896068,-0.13426179471126895 51.544600187535316,-0.1341930821335742 51.544561965687514,-0.1341726889963775 51.544575036706334)"
disabled (blue badge),at any time,N/A,N/A,N/A,N/A,Ossulston Street,NW1 1JJ,CA-G,N/A,36,"The information provider and/ or licensor are not liable for any errors or omissions contained within this dataset and shall not be liable for any loss, injury or damage caused by its use.",529953,182794,-0.127975,51.529113,46049594,Defined By Custodian,2019-11-29T23:02:13.000,"{'latitude': '51.529113', 'longitude': '-0.127975', 'human_address': '{""address"": """", ""city"": """", ""state"": """", ""zip"": """"}'}",{'url': 'http://opendatacommunities.org/id/london-borough-council/camden'},16,115,5,"MULTILINESTRING ((529958.3727434608 182787.46688710127,529957.8780397947 182788.1866810624,529954.9922684093 182792.67539618103,529952.3373587348 182796.66425438225,529947.868535618 182803.34234279933,529949.5752632659 182804.28207380415),(529956.9545929513 182793.34520445042,529955.2643554256 182792.2955049238),(529953.2855407614 182798.83363340396,529951.537587808 182797.95388522928),(529958.3727434608 182787.46688710127,529958.3397632163 182787.44689282458),(529960.2031470252 182788.5965637347,529958.3727434608 182787.46688710127),(529966.2550218734 182779.53915639056,529964.6472349587 182778.30950837364,529958.3727434608 182787.46688710127))","MULTILINESTRING ((-0.12790098637256747 51.52905227546487,-0.12790784850699288 51.52905885787339,-0.12794777074432778 51.529099860688525,-0.12798455117584498 51.529136318280145,-0.12804647453075887 51.52919736054371,-0.12802153769537902 51.5292054134243),(-0.127919250897931 51.52910542903395,-0.12794399066462406 51.52909638411361),(-0.1279700898834987 51.52915559618737,-0.1279955985469655 51.52914809185123),(-0.12790098637256747 51.52905227546487,-0.1279014689194651 51.529052103361316),(-0.12787419764010943 51.52906200689448,-0.12790098637256747 51.52905227546487),(-0.12779034396864963 51.528979218007464,-0.12781396212899854 51.52896853698854,-0.12790098637256747 51.52905227546487))"
disabled (blue badge),at any time,N/A,N/A,N/A,N/A,Pandora Road,NW6 1TT,CA-P,N/A,6,"The information provider and/ or licensor are not liable for any errors or omissions contained within this dataset and shall not be liable for any loss, injury or damage caused by its use.",525282,185035,-0.194479,51.550307,46044517,Defined By Custodian,2019-11-29T23:02:01.000,"{'latitude': '51.550307', 'longitude': '-0.194479', 'human_address': '{""address"": """", ""city"": """", ""state"": """", ""zip"": """"}'}",{'url': 'http://opendatacommunities.org/id/london-borough-council/camden'},18,130,1,"LINESTRING (525281.4195492895 185037.2428954178,525282.7057788213 185035.78331321885,525282.598593027 185035.6933389737,525278.0638094214 185031.73447218753,525276.8352953173 185033.22404580153)","LINESTRING (-0.19448735815405233 51.55032726240883,-0.1944693366887412 51.55031385964685,-0.19447091380854525 51.55031307481408,-0.19453769226227585 51.550278501914775,-0.1945548710871103 51.55029216140067)"
disabled (dedicated),at any time,N/A,N/A,N/A,N/A,Platt's Lane,NW3 7PL,CA-S,N/A,6,"The information provider and/ or licensor are not liable for any errors or omissions contained within this dataset and shall not be liable for any loss, injury or damage caused by its use.",0,0,-0.194217,51.560111,46127011,Defined By Custodian,2019-11-29T23:02:13.000,"{'latitude': '51.560111', 'longitude': '-0.194217', 'human_address': '{""address"": """", ""city"": """", ""state"": """", ""zip"": """"}'}",{'url': 'http://opendatacommunities.org/id/london-borough-council/camden'},6,43,1,,
disabled (blue badge),at any time,N/A,N/A,N/A,N/A,Leverton Street,NW5 2PJ,CA-M,N/A,6,"The information provider and/ or licensor are not liable for any errors or omissions contained within this dataset and shall not be liable for any loss, injury or damage caused by its use.",529070,185293,-0.139782,51.551773,46045241,Defined By Custodian,2019-11-29T23:02:03.000,"{'latitude': '51.551773', 'longitude': '-0.139782', 'human_address': '{""address"": """", ""city"": """", ""state"": """", ""zip"": """"}'}",{'url': 'http://opendatacommunities.org/id/london-borough-council/camden'},12,82,1,"LINESTRING (529072.0039399092 185290.37043841233,529070.2394968335 185290.64036114773,529071.2783745324 185297.19848390462,529073.0675527912 185296.83858692407)","LINESTRING (-0.13975433539393145 51.55174866915974,-0.1397796710269001 51.55175149805405,-0.13976229068629 51.551810197368425,-0.1397366314546693 51.55180655423644)"
disabled (blue badge),at any time,N/A,N/A,N/A,N/A,University Street,WC1E 6JN,CA-E,N/A,961,"The information provider and/ or licensor are not liable for any errors or omissions contained within this dataset and shall not be liable for any loss, injury or damage caused by its use.",0,0,-0.136048,51.52342,46129404,Defined By Custodian,2019-11-29T23:02:14.000,"{'latitude': '51.52342', 'longitude': '-0.136048', 'human_address': '{""address"": """", ""city"": """", ""state"": """", ""zip"": """"}'}",{'url': 'http://opendatacommunities.org/id/london-borough-council/camden'},2,13,1,,
disabled (blue badge),at any time,N/A,N/A,N/A,N/A,Fairhazel Gardens,NW6 3SJ,CA-R,CA-R;CA-K,6,"The information provider and/ or licensor are not liable for any errors or omissions contained within this dataset and shall not be liable for any loss, injury or damage caused by its use.",526157,184298,-0.18213,51.543489,46046710,Defined By Custodian,2019-11-29T23:02:07.000,"{'latitude': '51.543489', 'longitude': '-0.18213', 'human_address': '{""address"": """", ""city"": """", ""state"": """", ""zip"": """"}'}",{'url': 'http://opendatacommunities.org/id/london-borough-council/camden'},17,121,1,"LINESTRING (526160.1864065059 184296.38496379476,526158.5373942857 184295.62518128022,526155.7917889389 184301.65345570463,526157.3583505482 184302.3832468041)","LINESTRING (-0.1820854770783767 51.543473518236254,-0.18210951628275582 51.54346705824275,-0.18214692818047643 51.54352184781842,-0.18212408804829144 51.54352805669533)"
disabled (blue badge),at any time,N/A,N/A,N/A,N/A,Glenmore Road,NW3 4DA,CA-B,N/A,5,"The information provider and/ or licensor are not liable for any errors or omissions contained within this dataset and shall not be liable for any loss, injury or damage caused by its use.",527220,184907,-0.16659,51.548724,46047121,Defined By Custodian,2019-11-29T23:02:08.000,"{'latitude': '51.548724', 'longitude': '-0.16659', 'human_address': '{""address"": """", ""city"": """", ""state"": """", ""zip"": """"}'}",{'url': 'http://opendatacommunities.org/id/london-borough-council/camden'},1,8,1,"LINESTRING (527222.9088219488 184909.12956747646,527221.0701733233 184909.9793242361,527219.0006629869 184905.4406234257,527220.9300072845 184904.63085521944)","LINESTRING (-0.1665473155274562 51.54874194340551,-0.16657351133956563 51.54874999420086,-0.16660498229327322 51.54870967100108,-0.16657746472831464 51.54870195916562)"
disabled (blue badge),at any time,N/A,N/A,N/A,N/A,Steele's Road,NW3 4SH,CA-B,N/A,6,"The information provider and/ or licensor are not liable for any errors or omissions contained within this dataset and shall not be liable for any loss, injury or damage caused by its use.",527781,184644,-0.158599,51.546234,46045619,Defined By Custodian,2019-11-29T23:02:04.000,"{'latitude': '51.546234', 'longitude': '-0.158599', 'human_address': '{""address"": """", ""city"": """", ""state"": """", ""zip"": """"}'}",{'url': 'http://opendatacommunities.org/id/london-borough-council/camden'},9,65,1,"LINESTRING (527785.2219890439 184645.65498629079,527783.6636724957 184646.9846056912,527779.4257110897 184642.12599645363,527781.0334980044 184640.59643428624)","LINESTRING (-0.1585376052302467 51.54624720127031,-0.15855958342060797 51.54625950294732,-0.15862243068722115 51.54621679732791,-0.1585998120289374 51.54620268759739)"
disabled (blue badge),at any time,N/A,N/A,N/A,N/A,Cleve Road,NW6 3RP,CA-R,CA-R;CA-K,5,"The information provider and/ or licensor are not liable for any errors or omissions contained within this dataset and shall not be liable for any loss, injury or damage caused by its use.",525527,184358,-0.191189,51.544169,46044411,Defined By Custodian,2019-11-29T23:02:01.000,"{'latitude': '51.544169', 'longitude': '-0.191189', 'human_address': '{""address"": """", ""city"": """", ""state"": """", ""zip"": """"}'}",{'url': 'http://opendatacommunities.org/id/london-borough-council/camden'},18,127,1,"LINESTRING (525530.0493667931 184356.78767369888,525530.0823470376 184358.61715001674,525524.3932548778 184358.73711567692,525524.4097450001 184356.91763649744)","LINESTRING (-0.1911460246815667 51.5441567314139,-0.1911448969927143 51.544173165794945,-0.19122685164966738 51.54417550808824,-0.1912272627237136 51.544159152559125)"
disabled (blue badge),at any time,N/A,N/A,N/A,N/A,Talacre Road,NW5 3PH,CA-L,N/A,5,"The information provider and/ or licensor are not liable for any errors or omissions contained within this dataset and shall not be liable for any loss, injury or damage caused by its use.",528437,184737,-0.149109,51.546921,46045749,Defined By Custodian,2019-11-29T23:02:04.000,"{'latitude': '51.546921', 'longitude': '-0.149109', 'human_address': '{""address"": """", ""city"": """", ""state"": """", ""zip"": """"}'}",{'url': 'http://opendatacommunities.org/id/london-borough-council/camden'},9,59,1,"LINESTRING (528436.037641998 184733.37987530252,528437.7031443405 184733.84974080493,528435.8809858372 184740.0379694429,528434.3061791669 184739.43814114196)","LINESTRING (-0.1491251145289023 51.5468880051605,-0.14910093719492265 51.546891849175914,-0.14912494341961796 51.54694787651319,-0.14914786094184673 51.54694284391018)"
disabled (dedicated),at any time,N/A,N/A,N/A,N/A,Hampstead Hill Gardens,NW3 1PD,CA-H,157,991,"The information provider and/ or licensor are not liable for any errors or omissions contained within this dataset and shall not be liable for any loss, injury or damage caused by its use.",0,0,-0.170852,51.554201,46128479,Defined By Custodian,2019-11-29T23:02:14.000,"{'latitude': '51.554201', 'longitude': '-0.170852', 'human_address': '{""address"": """", ""city"": """", ""state"": """", ""zip"": """"}'}",{'url': 'http://opendatacommunities.org/id/london-borough-council/camden'},8,56,1,,
disabled (blue badge),at any time,N/A,N/A,N/A,N/A,Loveridge Road,NW6 2DU,CA-Q,N/A,5,"The information provider and/ or licensor are not liable for any errors or omissions contained within this dataset and shall not be liable for any loss, injury or damage caused by its use.",524926,184683,-0.199736,51.547223,46044299,Defined By Custodian,2019-11-29T23:02:01.000,"{'latitude': '51.547223', 'longitude': '-0.199736', 'human_address': '{""address"": """", ""city"": """", ""state"": """", ""zip"": """"}'}",{'url': 'http://opendatacommunities.org/id/london-borough-council/camden'},18,133,1,"LINESTRING (524930.3448476046 184682.68438673517,524929.7759383887 184684.54385446807,524924.16929684 184682.6443981818,524924.8536369114 184680.76493617217)","LINESTRING (-0.19967398989856006 51.547218559097374,-0.19968153023260257 51.54723539625128,-0.1997630192350753 51.54721956555997,-0.19975382213589862 51.547202523189924)"
disabled (dedicated),at any time,N/A,N/A,N/A,N/A,Medley Road,NW6 2HJ,CA-Q,N/A,5,"The information provider and/ or licensor are not liable for any errors or omissions contained within this dataset and shall not be liable for any loss, injury or damage caused by its use.",525269,184678,-0.194794,51.547102,46044385,Defined By Custodian,2019-11-29T23:02:01.000,"{'latitude': '51.547102', 'longitude': '-0.194794', 'human_address': '{""address"": """", ""city"": """", ""state"": """", ""zip"": """"}'}",{'url': 'http://opendatacommunities.org/id/london-borough-council/camden'},18,132,1,"LINESTRING (525269.1179181266 184675.0465730366,525270.7504402247 184675.88633265792,525267.9553645113 184681.0948417377,525266.215656619 184680.1751050096)","LINESTRING (-0.19479360243415847 51.54707488727988,-0.1947697723299055 51.547082072253566,-0.19480820700092885 51.54712950167082,-0.19483361056873386 51.547121621695624)"
disabled (blue badge),at any time,N/A,N/A,N/A,N/A,Leybourne Street,NW1 8BX,CA-F,N/A,6,"The information provider and/ or licensor are not liable for any errors or omissions contained within this dataset and shall not be liable for any loss, injury or damage caused by its use.",528674,184248,-0.145872,51.542472,46048291,Defined By Custodian,2019-11-29T23:02:11.000,"{'latitude': '51.542472', 'longitude': '-0.145872', 'human_address': '{""address"": """", ""city"": """", ""state"": """", ""zip"": """"}'}",{'url': 'http://opendatacommunities.org/id/london-borough-council/camden'},3,17,1,"LINESTRING (528673.0089431048 184252.05765235567,528671.8463894895 184250.79801292368,528676.8676317001 184246.51923771037,528678.0054501321 184247.82886283405)","LINESTRING (-0.1458854136892534 51.542508485806486,-0.14590262892600345 51.54249743028138,-0.14583182544376985 51.54245783383376,-0.1458149484266783 51.542469344198516)"
disabled (blue badge),at any time,N/A,N/A,N/A,N/A,Glenhurst Avenue,NW5 1PU,CA-U,N/A,4,"The information provider and/ or licensor are not liable for any errors or omissions contained within this dataset and shall not be liable for any loss, injury or damage caused by its use.",528493,185850,-0.147896,51.55691,46044661,Defined By Custodian,2019-11-29T23:02:02.000,"{'latitude': '51.55691', 'longitude': '-0.147896', 'human_address': '{""address"": """", ""city"": """", ""state"": """", ""zip"": """"}'}",{'url': 'http://opendatacommunities.org/id/london-borough-council/camden'},10,71,1,"LINESTRING (528496.5728806023 185850.7500314224,528495.6082084535 185852.1196393762,528491.3290217421 185849.07051217978,528492.392634624 185847.5609442891)","LINESTRING (-0.14784466642541405 51.55691589027432,-0.14785807381298818 51.556928418146384,-0.1479208794053835 51.55690198956343,-0.1479060967033656 51.556888181396545)"
disabled (blue badge),at any time,N/A,N/A,N/A,N/A,Mortimer Crescent,NW6 5NP,CA-K,N/A,6,"The information provider and/ or licensor are not liable for any errors or omissions contained within this dataset and shall not be liable for any loss, injury or damage caused by its use.",525747,183643,-0.188274,51.537694,46043469,Defined By Custodian,2019-11-29T23:01:59.000,"{'latitude': '51.537694', 'longitude': '-0.188274', 'human_address': '{""address"": """", ""city"": """", ""state"": """", ""zip"": """"}'}",{'url': 'http://opendatacommunities.org/id/london-borough-council/camden'},13,89,1,"LINESTRING (525748.7083871943 183639.65295137782,525749.9616364817 183641.1225307151,525745.6659596481 183645.44129448183,525744.3137696275 183643.9617180062)","LINESTRING (-0.18825059318144885 51.53766314270301,-0.1882320078163588 51.53767607105828,-0.18829237083355593 51.53771584016761,-0.18831238560644897 51.537702843975076)"
disabled (dedicated),at any time,N/A,N/A,N/A,N/A,Priory Road,NW6 4SJ,CA-K,N/A,6,"The information provider and/ or licensor are not liable for any errors or omissions contained within this dataset and shall not be liable for any loss, injury or damage caused by its use.",0,0,-0.189823,51.54035,46127182,Defined By Custodian,2019-11-29T23:02:13.000,"{'latitude': '51.54035', 'longitude': '-0.189823', 'human_address': '{""address"": """", ""city"": """", ""state"": """", ""zip"": """"}'}",{'url': 'http://opendatacommunities.org/id/london-borough-council/camden'},13,92,1,,
disabled (blue badge),at any time,N/A,N/A,N/A,N/A,Whitfield Street,W1T 4EY,CA-E,N/A,6,"The information provider and/ or licensor are not liable for any errors or omissions contained within this dataset and shall not be liable for any loss, injury or damage caused by its use.",529372,181962,-0.136652,51.521769,46035919,Defined By Custodian,2019-11-29T23:01:55.000,"{'latitude': '51.521769', 'longitude': '-0.136652', 'human_address': '{""address"": """", ""city"": """", ""state"": """", ""zip"": """"}'}",{'url': 'http://opendatacommunities.org/id/london-borough-council/camden'},2,13,1,"LINESTRING (529375.9910976457 181960.78352275278,529374.3173502422 181959.54387759752,529370.4916418912 181964.8523580608,529372.2148596614 181965.97203755588)","LINESTRING (-0.13659533034029622 51.52175655455673,-0.13661989666011143 51.521745796987666,-0.13667306000739113 51.52179437909343,-0.136647825051671 51.52180404723585)"
disabled (blue badge),at any time,N/A,N/A,N/A,N/A,Buckland Crescent,NW3 5DX,CA-B,N/A,6,"The information provider and/ or licensor are not liable for any errors or omissions contained within this dataset and shall not be liable for any loss, injury or damage caused by its use.",526769,184542,-0.173222,51.545545,46035521,Defined By Custodian,2019-11-29T23:01:54.000,"{'latitude': '51.545545', 'longitude': '-0.173222', 'human_address': '{""address"": """", ""city"": """", ""state"": """", ""zip"": """"}'}",{'url': 'http://opendatacommunities.org/id/london-borough-council/camden'},6,42,1,"LINESTRING (526772.1183513072 184547.9029675151,526773.5859721833 184546.5733481147,526769.9499002377 184542.60448419017,526768.9769830278 184541.7347331538,526767.5176072129 184543.03436113917)","LINESTRING (-0.17317527133129254 51.545596939882074,-0.17315459666473484 51.545584661231864,-0.1732084340236364 51.545549808914764,-0.17322277025985672 51.5455422107648,-0.1732433368857171 51.545554218019554)"
disabled (blue badge),at any time,N/A,N/A,N/A,N/A,Grangeway,NW6 2BT,CA-Q,N/A,5,"The information provider and/ or licensor are not liable for any errors or omissions contained within this dataset and shall not be liable for any loss, injury or damage caused by its use.",525029,184202,-0.198422,51.542877,46043387,Defined By Custodian,2019-11-29T23:01:59.000,"{'latitude': '51.542877', 'longitude': '-0.198422', 'human_address': '{""address"": """", ""city"": """", ""state"": """", ""zip"": """"}'}",{'url': 'http://opendatacommunities.org/id/london-borough-council/camden'},13,90,1,"LINESTRING (525028.2549481802 184199.34274184183,525027.257295787 184200.5823869971,525032.2373126921 184204.58124233666,525033.2019848409 184203.2416257979)","LINESTRING (-0.19843437116944732 51.54285303076513,-0.19844830984540907 51.54286439243829,-0.1983751140078463 51.542899228629544,-0.19836168617971212 51.54288697578871)"
disabled (blue badge),at any time,N/A,N/A,N/A,N/A,Raglan Street,NW5 3DB,CA-L,N/A,13,"The information provider and/ or licensor are not liable for any errors or omissions contained within this dataset and shall not be liable for any loss, injury or damage caused by its use.",528909,184852,-0.142264,51.547847,46045304,Defined By Custodian,2019-11-29T23:02:03.000,"{'latitude': '51.547847', 'longitude': '-0.142264', 'human_address': '{""address"": """", ""city"": """", ""state"": """", ""zip"": """"}'}",{'url': 'http://opendatacommunities.org/id/london-borough-council/camden'},12,81,2,"LINESTRING (528907.9354690585 184859.32382422214,528906.195761166 184858.26412755717,528913.6575414626 184847.01734691462,528915.3312888661 184848.2969806233)","LINESTRING (-0.14227726176272332 51.54791237416551,-0.14230272578019051 51.5479032477471,-0.14219929140626905 51.547800471561004,-0.14217469762445825 51.54781158955831)"
disabled (blue badge),at any time,loading 40 minutes,N/A,N/A,N/A,Gaisford Street,NW5 2EB,CA-M,N/A,4,"The information provider and/ or licensor are not liable for any errors or omissions contained within this dataset and shall not be liable for any loss, injury or damage caused by its use.",529083,184863,-0.139752,51.547906,46048379,Defined By Custodian,2019-11-29T23:02:11.000,"{'latitude': '51.547906', 'longitude': '-0.139752', 'human_address': '{""address"": """", ""city"": """", ""state"": """", ""zip"": """"}'}",{'url': 'http://opendatacommunities.org/id/london-borough-council/camden'},4,29,1,"LINESTRING (529085.4104092596 184861.2132833701,529085.5340851761 184862.86281119767,529080.4963528434 184863.21271103987,529080.3561868046 184861.42322327543)","LINESTRING (-0.13971846831991785 51.54788883105424,-0.13971608075876119 51.54790362690106,-0.13978856563036376 51.547907922462045,-0.13979124217830544 51.547891872578404)"
disabled (blue badge),at any time,N/A,N/A,N/A,N/A,Red Lion Street,WC1R 4PF,CA-D,N/A,13,"The information provider and/ or licensor are not liable for any errors or omissions contained within this dataset and shall not be liable for any loss, injury or damage caused by its use.",0,0,-0.117545,51.519854,46126929,Defined By Custodian,2019-11-29T23:02:13.000,"{'latitude': '51.519854', 'longitude': '-0.117545', 'human_address': '{""address"": """", ""city"": """", ""state"": """", ""zip"": """"}'}",{'url': 'http://opendatacommunities.org/id/london-borough-council/camden'},11,73,2,,
disabled (blue badge),at any time,N/A,N/A,N/A,N/A,Hollycroft Avenue,NW3 7QG,CA-S,N/A,5,"The information provider and/ or licensor are not liable for any errors or omissions contained within this dataset and shall not be liable for any loss, injury or damage caused by its use.",525361,186166,-0.192938,51.560454,46034952,Defined By Custodian,2019-11-29T23:01:52.000,"{'latitude': '51.560454', 'longitude': '-0.192938', 'human_address': '{""address"": """", ""city"": """", ""state"": """", ""zip"": """"}'}",{'url': 'http://opendatacommunities.org/id/london-borough-council/camden'},6,43,1,"LINESTRING (525360.8442228764 186162.90067922891,525362.5674406466 186163.89039592547,525359.9537562774 186168.98893648342,525358.1645780186 186168.0292112019)","LINESTRING (-0.19294175567330263 51.56042605026157,-0.19291655715183997 51.56043456201062,-0.19295242627771508 51.56048096336413,-0.19297856518053408 51.56047273579544)"
disabled (blue badge),at any time,N/A,N/A,N/A,N/A,Churchway,NW1 1LN,CA-G,N/A,5,"The information provider and/ or licensor are not liable for any errors or omissions contained within this dataset and shall not be liable for any loss, injury or damage caused by its use.",529787,182725,-0.130393,51.528531,46049465,Defined By Custodian,2019-11-29T23:02:13.000,"{'latitude': '51.528531', 'longitude': '-0.130393', 'human_address': '{""address"": """", ""city"": """", ""state"": """", ""zip"": """"}'}",{'url': 'http://opendatacommunities.org/id/london-borough-council/camden'},16,115,1,"LINESTRING (529786.6446108471 182721.73570245714,529788.2853780062 182722.22556223624,529786.4467293806 182728.0039082019,529784.7235116105 182727.43407131603)","LINESTRING (-0.13039942421253647 51.52850101196155,-0.13037560419072694 51.52850503755978,-0.1303999666278861 51.528557388864236,-0.13042500405168087 51.528552663447634)"
disabled (blue badge),at any time,N/A,N/A,N/A,N/A,Lawford Road,NW5 2LG,CA-M,N/A,5,"The information provider and/ or licensor are not liable for any errors or omissions contained within this dataset and shall not be liable for any loss, injury or damage caused by its use.",529288,184697,-0.136858,51.546367,46048372,Defined By Custodian,2019-11-29T23:02:11.000,"{'latitude': '51.546367', 'longitude': '-0.136858', 'human_address': '{""address"": """", ""city"": """", ""state"": """", ""zip"": """"}'}",{'url': 'http://opendatacommunities.org/id/london-borough-council/camden'},4,25,1,"LINESTRING (529291.6771028258 184695.46072954507,529291.8832293533 184697.4901486299,529285.9715205439 184698.06998265415,529285.8395995662 184696.08055212273)","LINESTRING (-0.13680625370563693 51.54635206712146,-0.1368025373694663 51.54637025807323,-0.13688753193977132 51.54637682181079,-0.13689016400585327 51.54635897324718)"
disabled (blue badge),at any time,N/A,N/A,N/A,N/A,Leverton Street,NW5 2PG,CA-M,N/A,6,"The information provider and/ or licensor are not liable for any errors or omissions contained within this dataset and shall not be liable for any loss, injury or damage caused by its use.",529083,185400,-0.139555,51.552732,46045246,Defined By Custodian,2019-11-29T23:02:03.000,"{'latitude': '51.552732', 'longitude': '-0.139555', 'human_address': '{""address"": """", ""city"": """", ""state"": """", ""zip"": """"}'}",{'url': 'http://opendatacommunities.org/id/london-borough-council/camden'},12,82,1,"LINESTRING (529080.7437046764 185397.28983305398,529082.6895390962 185397.089890287,529083.5800056951 185403.58803021378,529081.6424163365 185403.737987289)","LINESTRING (-0.13958914030200806 51.552707537635,-0.13956116365303073 51.55270529615212,-0.13954594403544968 51.552763490288214,-0.13957382019560957 51.55276528067799)"
disabled (blue badge),at any time,N/A,N/A,N/A,N/A,Highgate Hill,N6 5HG,CA-U,N/A,5,"The information provider and/ or licensor are not liable for any errors or omissions contained within this dataset and shall not be liable for any loss, injury or damage caused by its use.",528788,187263,-0.143126,51.569541,46044851,Defined By Custodian,2019-11-29T23:02:02.000,"{'latitude': '51.569541', 'longitude': '-0.143126', 'human_address': '{""address"": """", ""city"": """", ""state"": """", ""zip"": """"}'}",{'url': 'http://opendatacommunities.org/id/london-borough-council/camden'},10,72,1,"LINESTRING (528789.7177829909 187260.12660157573,528790.7319255063 187261.68615515818,528785.8261141512 187264.9652165366,528784.8696870634 187263.40566295417)","LINESTRING (-0.14310261527612106 51.56951478062257,-0.143087419612554 51.569528564493375,-0.14315696474733308 51.56955915130152,-0.14317132809963268 51.56954535425755)"
disabled (blue badge),at any time,N/A,N/A,N/A,N/A,Parkway,NW1 7AN,CA-F,N/A,6,"The information provider and/ or licensor are not liable for any errors or omissions contained within this dataset and shall not be liable for any loss, injury or damage caused by its use.",528729,183704,-0.145278,51.537571,46047896,Defined By Custodian,2019-11-29T23:02:10.000,"{'latitude': '51.537571', 'longitude': '-0.145278', 'human_address': '{""address"": """", ""city"": """", ""state"": """", ""zip"": """"}'}",{'url': 'http://opendatacommunities.org/id/london-borough-council/camden'},3,22,1,"LINESTRING (528726.2555476957 183702.8848514347,528728.0364808935 183701.73518052459,528731.911659611 183707.0136695728,528730.2544023297 183708.1533433446)","LINESTRING (-0.14531875390687912 51.53756098314834,-0.14529350971980057 51.53755024547157,-0.14523573668264225 51.537596800162866,-0.14525920228501044 51.53760741983661)"
disabled (blue badge),at any time,N/A,N/A,N/A,N/A,Maygrove Road,NW6 2EP,CA-Q,N/A,6,"The information provider and/ or licensor are not liable for any errors or omissions contained within this dataset and shall not be liable for any loss, injury or damage caused by its use.",525118,184764,-0.19694,51.547908,46044397,Defined By Custodian,2019-11-29T23:02:01.000,"{'latitude': '51.547908', 'longitude': '-0.19694', 'human_address': '{""address"": """", ""city"": """", ""state"": """", ""zip"": """"}'}",{'url': 'http://opendatacommunities.org/id/london-borough-council/camden'},18,133,1,"LINESTRING (525121.4488738059 184762.30159654593,525121.6550003334 184764.23104424728,525115.083686636 184764.9908267618,525114.8858051695 184763.1113647522)","LINESTRING (-0.19689109382129705 51.54789179024821,-0.19688743674356976 51.54790908480132,-0.19698188766279193 51.5479173687147,-0.1969854080901169 51.54790052156023)"
disabled (blue badge),at any time,N/A,N/A,N/A,N/A,Cressy Road,NW3 2NB,CA-B,N/A,6,"The information provider and/ or licensor are not liable for any errors or omissions contained within this dataset and shall not be liable for any loss, injury or damage caused by its use.",527589,185577,-0.161028,51.554662,46046061,Defined By Custodian,2019-11-29T23:02:05.000,"{'latitude': '51.554662', 'longitude': '-0.161028', 'human_address': '{""address"": """", ""city"": """", ""state"": """", ""zip"": """"}'}",{'url': 'http://opendatacommunities.org/id/london-borough-council/camden'},7,46,1,"LINESTRING (527588.4536058661 185580.7073303415,527590.407685347 185580.42741046773,527589.3935428316 185573.96925909433,527587.4394633507 185574.22918469142)","LINESTRING (-0.16103482920081574 51.55469490394882,-0.16100676023379568 51.5546919469905,-0.16102372126106243 51.55463413756052,-0.16105179744040818 51.55463691482923)"
disabled (blue badge),at any time,N/A,N/A,N/A,N/A,Alma Street,NW5 3DJ,CA-L,N/A,6,"The information provider and/ or licensor are not liable for any errors or omissions contained within this dataset and shall not be liable for any loss, injury or damage caused by its use.",528860,184828,-0.142979,51.547642,46045307,Defined By Custodian,2019-11-29T23:02:03.000,"{'latitude': '51.547642', 'longitude': '-0.142979', 'human_address': '{""address"": """", ""city"": """", ""state"": """", ""zip"": """"}'}",{'url': 'http://opendatacommunities.org/id/london-borough-council/camden'},12,86,1,"LINESTRING (528860.0893794887 184832.6014734155,528858.481592574 184831.3718253986,528861.7383917089 184826.46323046926,528863.5605502123 184827.69287848618)","LINESTRING (-0.14297669231561239 51.54768313861776,-0.14300031679306646 51.54767245462216,-0.14295517078942616 51.54762759876931,-0.14292845641524826 51.54763823385872)"
disabled (blue badge),at any time,N/A,N/A,N/A,N/A,Langland Gardens,NW3 6QD,CA-H,N/A,6,"The information provider and/ or licensor are not liable for any errors or omissions contained within this dataset and shall not be liable for any loss, injury or damage caused by its use.",525944,185329,-0.184831,51.552802,46035056,Defined By Custodian,2019-11-29T23:01:53.000,"{'latitude': '51.552802', 'longitude': '-0.184831', 'human_address': '{""address"": """", ""city"": """", ""state"": """", ""zip"": """"}'}",{'url': 'http://opendatacommunities.org/id/london-borough-council/camden'},6,39,1,"LINESTRING (525943.6875921132 185333.2281705141,525945.6251814719 185332.6483364899,525943.7782877852 185326.27016222329,525941.7087774489 185327.0299447378)","LINESTRING (-0.18483491229580187 51.552839994148364,-0.1848071877298072 51.552834351078545,-0.18483609317027072 51.55277744217434,-0.18486565509848807 51.552784731855134)"
disabled (blue badge),at any time,N/A,N/A,N/A,N/A,Chenies Street,WC1E 7PA,CA-E,N/A,13,"The information provider and/ or licensor are not liable for any errors or omissions contained within this dataset and shall not be liable for any loss, injury or damage caused by its use.",529680,181890,-0.132241,51.521051,46036066,Defined By Custodian,2019-11-29T23:01:56.000,"{'latitude': '51.521051', 'longitude': '-0.132241', 'human_address': '{""address"": """", ""city"": """", ""state"": """", ""zip"": """"}'}",{'url': 'http://opendatacommunities.org/id/london-borough-council/camden'},2,9,2,"LINESTRING (529683.0866434172 181889.5639091551,529681.8498842521 181891.23343125937,529680.134911543 181890.0937574876,529671.3044511038 181883.84554601953,529672.3515738636 181882.0360639784)","LINESTRING (-0.13219764591076205 51.521046160469645,-0.13221484766378588 51.52106144790902,-0.13223997167441318 51.52105159913791,-0.13236947577916575 51.520997472451334,-0.13235505725318597 51.52098097072251)"
disabled (blue badge),at any time,N/A,N/A,N/A,N/A,Belsize Park Gardens,NW3 4NB,CA-B,N/A,5,"The information provider and/ or licensor are not liable for any errors or omissions contained within this dataset and shall not be liable for any loss, injury or damage caused by its use.",527265,184746,-0.165999,51.547267,46047040,Defined By Custodian,2019-11-29T23:02:08.000,"{'latitude': '51.547267', 'longitude': '-0.165999', 'human_address': '{""address"": """", ""city"": """", ""state"": """", ""zip"": """"}'}",{'url': 'http://opendatacommunities.org/id/london-borough-council/camden'},1,1,1,"LINESTRING (527263.2766410998 184749.7851793331,527262.5098504174 184747.91571446185,527267.7124839722 184745.50640411975,527268.5534802045 184747.50583178955)","LINESTRING (-0.16602304523450037 51.54730082636913,-0.16603477347703977 51.54728419824306,-0.16596065432118973 51.54726137387942,-0.1659478094844874 51.54727915325563)"
disabled (dedicated),at any time,N/A,N/A,N/A,N/A,Osnaburgh Street,NW1 3DE,CA-G,N/A,5,"The information provider and/ or licensor are not liable for any errors or omissions contained within this dataset and shall not be liable for any loss, injury or damage caused by its use.",528908,182305,-0.143211,51.524957,46047593,Defined By Custodian,2019-11-29T23:02:09.000,"{'latitude': '51.524957', 'longitude': '-0.143211', 'human_address': '{""address"": """", ""city"": """", ""state"": """", ""zip"": """"}'}",{'url': 'http://opendatacommunities.org/id/london-borough-council/camden'},15,105,1,"LINESTRING (528906.6987098933 182301.57597192895,528908.6280541909 182301.30604919352,528909.287659079 182307.32432647957,528907.3665598425 182307.49427783152)","LINESTRING (-0.14323115350655716 51.524926414464524,-0.14320345683000554 51.52492354878758,-0.14319175282555013 51.524977484090684,-0.14321936731605933 51.524979449456914)"
disabled (blue badge),at any time,N/A,N/A,N/A,N/A,Chalcot Road,NW1 8LN,CA-J,N/A,978,"The information provider and/ or licensor are not liable for any errors or omissions contained within this dataset and shall not be liable for any loss, injury or damage caused by its use.",528064,184023,-0.154745,51.540589,46047832,Defined By Custodian,2019-11-29T23:02:10.000,"{'latitude': '51.540589', 'longitude': '-0.154745', 'human_address': '{""address"": """", ""city"": """", ""state"": """", ""zip"": """"}'}",{'url': 'http://opendatacommunities.org/id/london-borough-council/camden'},3,18,1,"LINESTRING (528068.3986125612 184023.3031326558,528067.2278138847 184021.53363916802,528062.354982774 184024.71272916297,528063.4680660226 184026.4922197891)","LINESTRING (-0.15468241066137595 51.54059003892213,-0.15469992738636984 51.540574401892705,-0.15476899688155799 51.5406040766251,-0.15475230830921005 51.540619816588965)"
disabled (blue badge),at any time,N/A,N/A,N/A,N/A,Belsize Park,NW3 4DX,CA-B,N/A,5,"The information provider and/ or licensor are not liable for any errors or omissions contained within this dataset and shall not be liable for any loss, injury or damage caused by its use.",526820,184771,-0.172404,51.547592,46035077,Defined By Custodian,2019-11-29T23:01:53.000,"{'latitude': '51.547592', 'longitude': '-0.172404', 'human_address': '{""address"": """", ""city"": """", ""state"": """", ""zip"": """"}'}",{'url': 'http://opendatacommunities.org/id/london-borough-council/camden'},6,41,1,"LINESTRING (526819.8242748382 184774.80801662043,526821.844314808 184774.0282398292,526819.8490100215 184769.0596620698,526817.7794996852 184769.8194445843)","LINESTRING (-0.17240592531527835 51.547625431172555,-0.172377089280698 51.547617969804854,-0.17240763968589898 51.547573765094285,-0.17243719596913007 51.547581057871504)"
disabled (blue badge),at any time,N/A,N/A,N/A,N/A,Belsize Park,NW3 4DX,CA-B,N/A,6,"The information provider and/ or licensor are not liable for any errors or omissions contained within this dataset and shall not be liable for any loss, injury or damage caused by its use.",526837,184802,-0.172148,51.547866,46035079,Defined By Custodian,2019-11-29T23:01:53.000,"{'latitude': '51.547866', 'longitude': '-0.172148', 'human_address': '{""address"": """", ""city"": """", ""state"": """", ""zip"": """"}'}",{'url': 'http://opendatacommunities.org/id/london-borough-council/camden'},6,41,1,"LINESTRING (526838.078840116 184806.5189394632,526839.4887455644 184805.28929144627,526835.7537328856 184800.2907222718,526833.98928981 184801.3104303834)","LINESTRING (-0.17213137716979737 51.54790631906293,-0.1721114976674001 51.54789495162895,-0.1721671356784075 51.547850868082364,-0.17219220116799233 51.54786042837888)"
disabled (blue badge),at any time,N/A,N/A,N/A,N/A,Lincoln's Inn Fields,WC2A 3EG,CA-C,N/A,13,"The information provider and/ or licensor are not liable for any errors or omissions contained within this dataset and shall not be liable for any loss, injury or damage caused by its use.",530861,181486,-0.115379,51.517149,46043019,Defined By Custodian,2019-11-29T23:01:58.000,"{'latitude': '51.517149', 'longitude': '-0.115379', 'human_address': '{""address"": """", ""city"": """", ""state"": """", ""zip"": """"}'}",{'url': 'http://opendatacommunities.org/id/london-borough-council/camden'},11,73,2,"LINESTRING (530860.2340168213 181493.48728490944,530858.3871231347 181492.54755390465,530863.6639622394 181480.61097071605,530865.4613855594 181481.440733199)","LINESTRING (-0.11538757983632376 51.51721549402311,-0.11541453117107235 51.51720747619002,-0.11534295363619607 51.517098983633,-0.11531675572221974 51.51710602462647)"
disabled (green permit),mon-fri 08:30-18:30,N/A,N/A,N/A,N/A,Brooke's Market,EC1N 7SY,CA-D,N/A,5,"The information provider and/ or licensor are not liable for any errors or omissions contained within this dataset and shall not be liable for any loss, injury or damage caused by its use.",531247,181759,-0.109717,51.519512,46042962,Defined By Custodian,2019-11-29T23:01:58.000,"{'latitude': '51.519512', 'longitude': '-0.109717', 'human_address': '{""address"": """", ""city"": """", ""state"": """", ""zip"": """"}'}",{'url': 'http://opendatacommunities.org/id/london-borough-council/camden'},11,76,1,"LINESTRING (531244.0251209553 181764.4397255801,531246.0616510473 181764.71964545385,531247.0428133183 181759.50113923574,531247.0757935627 181759.32119074545,531244.9485677986 181759.1512393935)","LINESTRING (-0.10975862409682836 51.519561544337286,-0.10972918435523844 51.519563587248705,-0.10971699364595475 51.5195164620985,-0.10971658556336528 51.51951483729127,-0.10974729077800455 51.519513803691986)"
disabled (blue badge),at any time,N/A,N/A,N/A,N/A,Quex Road,NW6 4QA,CA-K,N/A,6,"The information provider and/ or licensor are not liable for any errors or omissions contained within this dataset and shall not be liable for any loss, injury or damage caused by its use.",525440,184004,-0.192569,51.541007,46043584,Defined By Custodian,2019-11-29T23:01:59.000,"{'latitude': '51.541007', 'longitude': '-0.192569', 'human_address': '{""address"": """", ""city"": """", ""state"": """", ""zip"": """"}'}",{'url': 'http://opendatacommunities.org/id/london-borough-council/camden'},13,92,1,"LINESTRING (525441.9179086835 184007.80756821498,525443.1216876042 184006.43796026116,525437.9272991106 184002.44910205994,525436.6987850065 184003.9086842589)","LINESTRING (-0.19254061323784005 51.54103998233506,-0.1925237521994165 51.54102740623582,-0.1926000354326288 51.540992711175605,-0.1926172209113292 51.54100610136481)"
disabled (blue badge),at any time,N/A,N/A,N/A,N/A,Willoughby Road,NW3 1RG,CA-H,N/A,5,"The information provider and/ or licensor are not liable for any errors or omissions contained within this dataset and shall not be liable for any loss, injury or damage caused by its use.",526676,185639,-0.174168,51.555425,46048759,Defined By Custodian,2019-11-29T23:02:12.000,"{'latitude': '51.555425', 'longitude': '-0.174168', 'human_address': '{""address"": """", ""city"": """", ""state"": """", ""zip"": """"}'}",{'url': 'http://opendatacommunities.org/id/london-borough-council/camden'},8,53,1,"LINESTRING (526675.7253419743 185642.9795051169,526677.4897850499 185642.5496281679,526676.2365357626 185637.33112194977,526674.4473575037 185637.76099889877)","LINESTRING (-0.17417059447721941 51.55545998607713,-0.17414531191908889 51.55545572697718,-0.17416525725897475 51.5554091098192,-0.17419089638900534 51.55541337446311)"
